code,Id,category,area_code,address,Latitude,Longitude,name,information,image
1,2508606,1,32,강원특별자치도 양구군 해안면 해안서화로 35,38.2898662,128.14551,양구DMZ,강원도 양구DMZ는 군사 통제구역으로 잘 보존된 자연경관을 둘러볼 수 있는 생태관광지다. 양구하면 펀치볼을 빼놓을 수 없다. 펀치볼은 해안면에 위치한 해발 400∼500m 고지대에 발달한 분지로...,http://tong.visitkorea.or.kr/cms/resource/19/2668219_image2_1.jpg
2,2508609,1,34,충청남도 태안군 원북면 신두해변길 291-30,36.8362907,126.1960542,두웅습지,"태안 두웅습지는 총면적이 6만5,000㎡ 규모로 신두리 해안사구 남쪽에 형성된 배후습지다. 원래는 바다였지만 이곳에 해안사구가 형성되면서 사구지대와 배후 산지 골짜기의 경계 부분에 담수...",
3,2508610,1,38,전라남도 무안군 해제면 용산길 140,35.099646,126.3292114,무안갯벌,"무안갯벌의 면적은 147.6㎢로 전국 갯벌면적 2,489.4㎢의 5.9%를 차지하고 있다. 특히, 전라남도 무안군 현경면과 해제면 일대 42㎢는 2001년 12월 28일 국내 최초 갯벌습지보호지역으로 지정되었다. ...",http://tong.visitkorea.or.kr/cms/resource/86/2508586_image2_1.jpg
4,2508616,1,7,울산광역시 울주군 삼동면 조일리 일원,35.4852269,129.1212653,무제치늪,"국내에서 가장 오래된 산지 습지인 무제치늪은 울산광역시에 자리한 정족산 능선에 형성된 고층습지다. 총 4개 늪으로 이루어져 있으며, 등록 면적은 4만㎡다. 제1늪은 해발 510m, 제2늪은 해발 5...",
5,2508628,1,38,전라남도 순천시 순천만길 513-25,34.885679,127.5094304,순천만 자연생태공원,전남 순천시 순천만은 고흥반도와 여수반도 사이에 형성된 만으로 우리나라의 대표적인 연안 습지다. 순천만에는 다양하고 풍부한 습지 생물이 서식하고 있어 습지 연구에 매우 중요한 지역...,http://tong.visitkorea.or.kr/cms/resource/79/2508579_image2_1.jpg
6,2508635,1,36,경상남도 창녕군 유어면 우포늪길 220,35.5445099,128.418417,창녕군 우포늪,"창녕 우포늪은 경상남도 창녕군 이방면에서 유어면, 대합면에 걸쳐 있는 늪지성 호수로 면적이 231만4,049㎡(약 70만 평)에 달하는 국내 최대의 자연 늪이다. 우포·목포·쪽지벌·사지포 등 4개 늪...",
7,2508649,1,39,제주특별자치도 제주시 구좌읍 해녀박물관길 26,33.523385,126.8622061,제주도 하도리 숨비소리길(하도리밭담길),"하도리는 제주의 동북쪽에 위치하며 해안가를 중심으로 마을이 형성된 곳으로 푸른 바다와 하얀 백사장, 뛰어난 절경의 해안도로, 수십 종의 철새도래지로 유명한 마을이다. 이곳 마을에는 제...",http://tong.visitkorea.or.kr/cms/resource/21/2675721_image2_1.JPG
8,2508660,1,2,인천광역시 강화군 일대,37.7065047,126.4433977,"강화도 남단(여차리, 선두리 해안)","규모가 약 3억4,800만㎡에 이르는 강화도 갯벌은 세계 5대 갯벌 중 하나이자 우리나라 최대 규모의 연안 습지다. 강화도 갯벌은 한강에서 흘러들어 오는 각종 오염물질을 자연 정화시켜 바다로 ...",
9,2508663,1,38,전라남도 보성군 벌교읍 장호길 368,34.827316,127.3940466,보성 벌교 갯벌,"보성 벌교갯벌은 벌교천 하구에 위치한 연안 습지로서 전남 보성군 벌교읍 고흥군·호동리·장양리·영등리·장암리·대포리 일대를 포함하며 면적은 1,030만㎡에 이른다. 벌교갯벌은 멸종위기 ...",http://tong.visitkorea.or.kr/cms/resource/96/2508596_image2_1.jpg
10,2508664,1,39,제주특별자치도 서귀포시 성산읍 일출로 284-12,33.4621008,126.9362017,서귀포시 성산포,"유네스코 세계자연유산에 등재된 생태 여행지를 많이 품고 있는 제주도에서도 성산포는 더 특별하다. 2007년에 유네스코 세계자연유산 등재, 2010년에 세계지질공원에 등재된 성산일출봉을 품...",
11,2508681,1,34,충청남도 서산시 부석면 간월도1길 119-29,36.6037742,126.4111579,서산시 천수만,천수만은 천해성 내만으로 충청남도 서산시를 기준으로 태안군 안면읍과 보령시 사이에 있다. 세계적인 규모의 철새 도래지인 천수만은 1980년 농경지 담수호 조성을 위한 간척사업과 방조제 ...,http://tong.visitkorea.or.kr/cms/resource/89/2508589_image2_1.jpg
12,2508714,1,2,인천광역시 중구 운남서로 100,37.4938542,126.531458,영종도,인천광역시 중구에 속하는 영종도는 우리나라에서 일곱 번째로 큰 섬이다. 원래는 제비가 많다 하여 ‘자연도(紫燕島)’라는 이름으로 불렸다. 영종도는 간석지가 발달하여 간조 때면 주위의 ...,
13,2508716,1,2,인천광역시 옹진군 북도면 신도리,37.5270433,126.4543984,옹진군 신도,"신도는 인천광역시 옹진군 북도면에 있는 섬으로 근처의 시도, 모도와 함께 형제섬으로 불린다. 이들 섬은 희귀 조류의 서식지로 유명한데 특히 신도는 멸종위기 야생생물인 여름철새 노랑부...",
14,2508718,1,36,경상남도 창원시 의창구 동읍 대산면 일원,35.3083537,128.6696025,창원 주남저수지,주남저수지는 경상남도 창원시 의창구 동읍과 대산면 일대에 있는 저수지로 산남·주남(용산)·동판 등 3개 저수지를 합하여 부른다. 오랜 옛날부터 농업용수를 공급해 주던 배후습지성 호수다...,http://tong.visitkorea.or.kr/cms/resource/93/2508593_image2_1.jpg
15,2508720,1,33,충청북도 단양군 단양읍 고수동굴길 8,36.9884887,128.3815923,단양고수동굴,"단양 고수동굴은 남한강 상류 충주호반의 단양읍 고수리에 있는 석회동굴이다. 동굴 내부에는 동굴의 수호신으로 모시는 사자바위를 비롯해 종유관, 종유석, 석순, 돌기둥, 유석, 커튼과 베이 ...",
16,2508723,1,39,제주특별자치도 제주시 구좌읍 만장굴길 182,33.5281972,126.7717618,만장굴,만장굴은 벵뒤굴·만장굴·김녕굴·용천동굴·당처물동굴 등과 함께 유네스코 세계자연유산에 이름을 올린 용암 동굴이다. 형성 시기는 10만∼30만 년 전으로 거문오름의 화산 폭발로 흘러내린 ...,http://tong.visitkorea.or.kr/cms/resource/44/2508544_image2_1.jpg
17,2508748,1,37,전라북도 무주군 설천면 구천동1로 159,35.900708,127.7751598,덕유산국립공원,"덕유산국립공원은 전라북도 무주와 장수군, 경상남도 거창과 함양군 등 2개 도 4개 군에 걸쳐 있다. 향적봉(1,614m)을 중심으로 1,300m 안팎의 장중한 능선이 남서쪽을 향해 장장 약 30km를 달리고 ...",
18,2508755,1,1,서울특별시 성북구 보국문로 262,37.6242392,126.9901206,북한산국립공원,단위 면적당 가장 많은 탐방객이 찾는 국립공원으로 세계기네스북에 기록되기도 했던 북한산국립공원은 세계적으로도 드문 도심 속 자연공원이다. 서울특별시 도봉구·강북구·종로구·은평...,http://tong.visitkorea.or.kr/cms/resource/72/2526672_image2_1.jpg
19,2508767,1,38,전라남도 영암군 영암읍 천황사로 280-43,34.7750814,126.721715,월출산국립공원,호남의 5대 명산 중 하나로 꼽히는 월출산은 ‘달뜨는 산’이라는 이름처럼 수려한 자연을 품은 한반도 최남단의 산악형 국립공원이다. 주변 지역이 평야지대여서 가운데 우뚝 솟은 산세가 더...,
20,2508770,1,39,제주특별자치도 제주시 1100로 2010-61,33.4276835,126.4826133,한라산국립공원,"한라산은 해발 1,950m로 남한에서 가장 높다. 신생대 제4기의 젊은 화산섬인 한라산은 2만5천 년 전까지 화산분화 활동을 하였으며, 한라산 주변에는 기생화산인 오름이 368개 분포되어 있다. 한...",http://tong.visitkorea.or.kr/cms/resource/99/2870099_image2_1.jpg
21,2509413,1,34,충청남도 태안군 원북면 신두해변길 201-122,36.8465683,126.1989057,태안군 신두리 해안사구,"태안신두리해안사구는 우리나라 최대의 해안사구 지대로 전사구, 사구습지, 초승달 모양의 사구인 바르한 등 다양한 지형이 발달해 있다. 길이가 약 3.4km, 폭은 0.5~1.3km 규모의 모래언덕인데 환...",http://tong.visitkorea.or.kr/cms/resource/69/2508569_image2_1.jpg
22,2509443,1,38,전라남도 신안군 증도면 문준경길 188,35.0027957,126.1398143,전남 신안 증도 [슬로시티],"담양군 창평, 완도군 청산도와 함께 아시아 최초의 슬로시티가 된 신안군 증도는 국제슬로시티연맹의 재인증을 받는 데도 성공했다. 증도는 국가습지보호지역과 람사르 습지로도 지정된 자연...",http://tong.visitkorea.or.kr/cms/resource/28/2508528_image2_1.jpg
23,2509451,1,38,전라남도 완도군 청산면 도청길 일대,34.1808444,126.8593849,전남 완도 청산도 [슬로시티],"청산도는 완도에서 19.2km 떨어진 다도해 최남단 섬으로 배를 타고 50분 정도 걸린다. 예로부터 공기가 맑고 산과 바다가 푸른 청산도는 청산여수(靑山麗水), 선원도(仙源島) 등 갖고 있는 이름도...",
24,2509471,1,34,충청남도 태안군 태안읍 군청로 1,36.745436,126.2982977,태안군,"충청남도 서해안 태안반도에 있는 태안군은 530.8km의 길고 복잡한 리아스식 해안에, 연안의 수심이 얕고 조차가 커서 간석지가 넓게 발달했다. 안면도 등 119개 섬을 비롯해 꽃지해변과 천리포...",http://tong.visitkorea.or.kr/cms/resource/61/186461_image2_1.jpg
25,2547325,1,31,경기도 남양주시 조안면 다산로747번길 11,37.5165495,127.2991672,다산생태공원,"남양주시 조안면 능내리에 위치한 다산 유적지는 나라의 부패를 꾸짖던 다산 정약용의 쩌렁쩌렁한 목소리와 꼿꼿하고 검소한 그의 생활이 그대로 보존되어 있는 생가 여유당, 이백년 세월의 ...",http://tong.visitkorea.or.kr/cms/resource/35/2547135_image2_1.jpg
26,2547326,1,31,경기도 시흥시 동서로 287,37.3909839,126.780835,갯골생태문화탐방로,"시흥갯골생태공원은 경기도 유일의 내만 갯골과 옛 염전의 정취를 느낄 수 있는 아름다운 곳입니다. 칠면초, 나문재, 퉁퉁마디 등의 염생식물과 붉은발 농게, 방게 등 각종 어류, 양서류가 서...",http://tong.visitkorea.or.kr/cms/resource/38/2547138_image2_1.jpg
27,2547327,1,31,경기도 파주시 문산읍 임진각로 177,37.8893655,126.7400828,임진강변생태탐방로(율곡습지꽃가람놀이배움터),"임진강변 생태탐방로는 임진각 평화누리에서 통일대교, 초평도, 임진나루를 지나 율곡습지공원까지 이어지는 9.1km의 구간으로 약 3시간이 소요되는 코스입니다. 철책이 설치되고, 민간인을 통...",http://tong.visitkorea.or.kr/cms/resource/39/2547139_image2_1.jpg
28,2547329,1,31,경기도 포천시 영북면 운천리 783-18,38.0972932,127.2514147,한탄강변자연생태탐방로(벼롯길),"지금은 북녘 땅인 강원도 평강군 오리산에서 거대한 화산이 폭발한 후, 물처럼 점성이 낮은 현무암질용암이 한탄강을 따라 흐르고 흘러 철원과 포천, 연천을 지나 파주까지 이르렀다. 강물과 ...",http://tong.visitkorea.or.kr/cms/resource/42/2547142_image2_1.jpg
29,2547335,1,31,경기도 포천시 영북면 대회산리 451,38.0771613,127.2203818,한탄강자연생태탐방로,한탄강 탐방로는 강변 산속 숲길에 만들어진 생태탐방로로 구름다리 등을 걸으면서 가벼운 등산을 하며 한탄강의 절경을 감상할 수 있는 자연 그대로의 트레킹 코스이다. 승일교에서 마당바...,http://tong.visitkorea.or.kr/cms/resource/43/2547143_image2_1.jpg
30,2547339,1,33,충청북도 괴산군 칠성면 사은리 546-1,36.7600303,127.8384906,괴산 산막이옛길,"전국 2시간대 접근성의 대한민국 중심부에 위치한 ‘괴산산막이옛길과 괴산호.’ 산으로 둘러싸인 이 곳은 인위적 훼손을 막기 위해 자연환경보호지역으로 지정•관리하고 있으며, 국립공원...",http://tong.visitkorea.or.kr/cms/resource/09/2547209_image2_1.jpg
31,2547344,1,31,경기도 안산시 상록구 해안로 820-116,37.2908318,126.854309,안산 갈대습지공원,"국내 최초의 인공 습지로서 1997년 착공하여 2005년 12월 완공한 이 공원은 본래 ‘시화호습지공원’으로 불렸으나, 2014년 4월 관할 주체가 한국수자원공사에서 안산시와 화성시로 나뉘어 넘어가...",http://tong.visitkorea.or.kr/cms/resource/52/2547152_image2_1.jpg
32,2547347,1,31,경기도 연천군 전곡읍 양연로 1510,38.0125149,127.0605153,한탄강임진강지질공원,"한탄강 지질 공원은 경기도 포천시와 연천군 일원에 위치하며, 면적은 산정 방법에 따라 다소 차이가 있으나 약 290㎢이다. 한탄강지질공원의 지질·지형학 특징을 보면 신생대제4기에 일어난 ...",http://tong.visitkorea.or.kr/cms/resource/54/2547154_image2_1.jpg
33,2547349,1,31,경기도 안산시 단원구 대부황금로 1531,37.2543776,126.6121501,대송습지,"대부 해솔길과 대송습지라는 천혜의 자원을 갖고 있어 서해의 보물섬이라 불립니다. 특히 대송습지는 서해안 최대의 습지로서, 130여 종의 조류가 서식하는 생태관광의 명소로 떠오르고 있습...",http://tong.visitkorea.or.kr/cms/resource/58/2547158_image2_1.jpg
34,2547352,1,2,인천광역시 강화군 화도면 해안남로 2293-37,37.609647,126.383173,강화갯벌센터,"강화갯벌의 전체면적은 약 105km에 달하며, 특히 여차리-동막리-동검리를 잇는 서남부지역의 갯벌은 육지로부터 최대 6km, 면적은 약 90km로 강화갯벌 면적의 약 86%를 차지한다. 강화도는 한강, 예...",http://tong.visitkorea.or.kr/cms/resource/64/2547164_image2_1.jpg
35,2547354,1,31,경기도 가평군 북면 가화로 2089-42,37.9404404,127.4916653,명지산-청계산 생태공원,"가평군의 자연환경을 지키고 보전하기 위해 환경 보존 프로그램을 진행하고 있다. 그 일환으로 경기도 가평군 북면 명지산 도립공원 내에 명지산 생태전시관을 건립하여 천연염색, 화분만들...",http://tong.visitkorea.or.kr/cms/resource/67/2547167_image2_1.jpg
36,2547355,1,31,경기도 의왕시 왕송못동로 307,37.306757,126.9527992,의왕자연학습공원(레솔레파크),"레솔레파크는 전체 80,715㎡ 규모의 안내소와 습지대, 도섭지, 관찰데크 등 각종 생물을 관찰할 수 있도록 꾸며져 있다. 공원 산책로가 있어 도심 속에 쉼터로 자리매김하고 있고, 주변에는 조류...",http://tong.visitkorea.or.kr/cms/resource/72/2547172_image2_1.jpg
37,2547356,1,31,경기도 안양시 만안구 석수로 320,37.4170765,126.8959705,안양천 생태이야기관,안양천 살리기 사업을 통해 유역 내 350만 시민이 자연과 함께 어우러져 살 수 있는 건강하고 아름다운 『생명이 살아 숨 쉬는 안양천』 으로 하천 환경이 회복되었다. 이에 효율적이고 전문적...,http://tong.visitkorea.or.kr/cms/resource/78/2547178_image2_1.jpg
38,2547419,1,31,경기도 포천시 신북면 지동길 114-11,37.9383786,127.1212501,지동산촌마을,포천 지동산촌마을은 사시사철 늘 푸른 아름드리 잣나무 숲이 마을을 감싸 안아 장관을 이루고 마을 중앙에는 천년수은행나무와 더불어 850/650/500년 은행나무들이 마을 사람들에 애환과 사랑...,http://tong.visitkorea.or.kr/cms/resource/85/2547185_image2_1.jpg
39,2547441,1,36,경상남도 사천시 용현면 대밭담로 5-9,35.0079955,128.0612153,한려해상 국립공원,한려해상국립공원은 1968년 우리나라에서 4번째이자 해상공원으로는 최초로 국립공원으로 지정되었다. 경남 거제시 지심도에서 전남 여수시 오동도까지 300리 뱃길을 따라 크고 작은 섬들과 천...,http://tong.visitkorea.or.kr/cms/resource/76/2547276_image2_1.jpg
40,2547442,1,36,경상남도 통영시 도남로 117,34.8312134,128.4174646,한려해상 국립공원(동부),한려해상국립공원은 1968년 우리나라에서 4번째이자 해상공원으로는 최초로 국립공원으로 지정되었다. 경남 거제시 지심도에서 전남 여수시 오동도까지 300리 뱃길을 따라 크고 작은 섬들과 천...,http://tong.visitkorea.or.kr/cms/resource/82/2547282_image2_1.jpg
41,2547443,1,1,서울특별시 종로구 평창동 일원,37.6130288,126.9745028,북악산생태탐방로,"북악산 내 전통사찰과 일반사찰 탐방이 가능한 힐링로드 산사길, 자연의 소중함을 느끼고, 일상에 찌든 스트레스를 해소할 수 있는 곳이다. * 문의 : 02-2241-3692 * 관련 홈페이지 : http://www.eco-tou...",http://tong.visitkorea.or.kr/cms/resource/38/2547038_image2_1.jpg
42,2547444,1,1,서울특별시 송파구 올림픽로 383,37.5169837,127.1107635,토성산성 어울길,"도심 속 흙길, 토성산성어울길 도심 근처의 토성산성어울길은 2개의 코스로 구성되어 있다. 성내천 주변으로 조성된 인공폭포와 분수대는 걷는 이로 하여금 마음 시원하게 만들며, 남한산성...",http://tong.visitkorea.or.kr/cms/resource/42/2547042_image2_1.jpg
43,2547445,1,36,경상남도 거제시 일운면 와현리 예구선착장,34.801804,128.7146354,거제생태문화탐방로(천주교순례길)1,"윤봉문(1852~1888,요셉) 순교자가 박해와 탄압을 피해 종교 활동이 자유로운 대마도로 건너가기 위해 이 길을 지나갔다 하여 천주교 순례길이라 한다. 예구마을선착장에서 시작하여 공곶이를 거...",http://tong.visitkorea.or.kr/cms/resource/86/2547286_image2_1.jpg
44,2547446,1,1,서울특별시 도봉구 도봉산길 86,37.6874303,127.0344916,북한산 생태탐방연수원,"청정한 국립공원이 가진 우수한 생태·문화·자원 등을 활용하여 다양한 수련·교류 등 체험활동을 통해 미래 세대인 청소년의 품성 및 자질 함양, 선진시민으로 육성 할 수 있는 지속가능한 에...",http://tong.visitkorea.or.kr/cms/resource/43/2547043_image2_1.jpg
45,2547447,1,36,경상남도 거제시 일운면 와현리 예구선착장,34.801804,128.7146354,거제생태탐방로(양지암등대길),양지조각공원으로 이어지는 길을 따라 조성된 탐방로로 탐방로를 따라 걷다보면 탁트인 바다풍경과 조각 등을 관람 할 수 있는 아름다운 탐방로이다. * 문의 : 055-639-4353 * 관련 홈페이지 : http...,http://tong.visitkorea.or.kr/cms/resource/91/2547291_image2_1.jpg
46,2547448,1,36,경상남도 남해군 이동면 성남로 99,34.7789384,127.9510239,남해 바래길,"남해바래길은 2010년 11월 27일 남해바래길 제1코스(평산항에서 가천다랭이마을 해변, 총16㎞)인 다랭이지겟길을 열면서 현재까지 8개 코스가 정비되어있어 전국의 도보객들이 찾고 있다. 주로 ...",http://tong.visitkorea.or.kr/cms/resource/92/2547292_image2_1.jpg
47,2547449,1,36,경상남도 진주시 옥봉동,35.1952124,128.0939251,봉황교~비봉산 생태탐방로,"‘에나’는 경상도 진주사투리를 대표하는 말로 ‘참’, ‘진짜’라는 의미로 에나진주길은 진주시가 품고 있는 역사·문화자원들과 비봉산, 선학산을 아우르는 환경자원들 그리고 진주성과 ...",http://tong.visitkorea.or.kr/cms/resource/96/2547296_image2_1.jpg
48,2547450,1,36,경상남도 진주시 남강로1번길 96-6,35.1759755,128.0368935,진양호자연생태문화탐방로,경호강과 덕천강이 만나는 곳에 위치한 진양호는 맑고 수려한 풍광을 지닌 서부경남의 유일한 인공호수로 지리산이 한눈에 바라보이는 시원하게 트인 전망과 아침에 피어나는 호반의 물안개...,http://tong.visitkorea.or.kr/cms/resource/99/2547299_image2_1.jpg
49,2547454,1,36,경상남도 김해시 한림면 한림로 183-300,35.3107551,128.7885416,화포천습지 생태공원,화포천습지는 낙동강 배후 자연습지이자 국내 최대규모의 하천형 습지로 노랑부리저어새와 큰 기러기를 비롯한 매우 희귀한 동식물이 서식하고있는 생명의 땅이다. 창포의 푸르른 잎이 고개...,http://tong.visitkorea.or.kr/cms/resource/02/2547302_image2_1.jpg
50,2547485,1,36,경상남도 창원시 의창구 동읍 주남로101번길 26,35.3067048,128.6780502,주남저수지 생태학습관,"주남저수지생태학습관은 1층 328㎡ 규모의 건물로 전시 시설, 중앙홀, 농산물 판매장으로 나뉘어져 있다. 먼저 중앙홀에서 안내를 받아 전시실에 들어서면 주남저수지를 찾는 새들, 주변에서 ...",http://tong.visitkorea.or.kr/cms/resource/09/2547309_image2_1.jpg
51,2547509,1,36,경상남도 남해군 삼동면 금암로 562-23,34.7575652,128.0123944,남해나비생태공원,"남해군의 수려한 자연환경에 나비생태공원을 조성하여 자연환경의 중요성을 고취시키고 특색 있는 테마관광지로 육성했다. 남해관광의 자원적, 계절적 한계를 극복하고 군민의 문화지향 욕...",http://tong.visitkorea.or.kr/cms/resource/17/2547317_image2_1.jpg
52,2547512,1,6,부산광역시 부산진구 전포동 일대,35.1575101,129.0710937,구상반려암명소,황령산 일대의 구상반려암은 약 6천만 년 전 지하 깊은 곳에서 마그마가 서서히 굳어 만들어진 암석으로 암석의 표면에서는 가운데의 핵을 중심으로 하여 동심원을 그리며 광물들이 배열된 구...,http://tong.visitkorea.or.kr/cms/resource/49/2547049_image2_1.jpg
53,2547513,1,6,부산광역시 금정구 청룡동 일대,35.282125,129.069762,금정산명소,"약 7천만 년 전 지하에서 마그마가 식어서 생성된 화강암이 융기하여 형성된 부산 땅의 뿌리를 이루는 산이다. 오랜 세월 비바람에 깎이고 다듬어져 만들어진 기암절벽, 토르,나마, 인셀베르그...",http://tong.visitkorea.or.kr/cms/resource/52/2547052_image2_1.jpg
54,2547514,1,36,경상남도 하동군 악양면 섬진강대로 3358-30,35.1492504,127.6807423,지리산생태과학관,"하동지리산생태과학관은 섬진강이 한눈에 내려다 보이는 고소산 중턱에 자리잡고 있으며 전시관, 영상관, 체험관, 야생화단지를 고루 갖춘 과학관으로 단순 전시가 아닌 체험위주의 과학관이...",http://tong.visitkorea.or.kr/cms/resource/18/2547318_image2_1.jpg
55,2547515,1,6,부산광역시 사하구 낙동남로 1240,35.1047953,128.9457698,낙동강하구명소,"낙동강이 남해바다와 만나 만들어진 현생 삼각주로 모래들이 쌓여 만들어진 사주, 사구, 석호 등 아름다운 지형의 명소들이 압권이다. 습지와 철새도래지 명소에는 독특하고 다양한 동식물들...",http://tong.visitkorea.or.kr/cms/resource/57/2547057_image2_1.jpg
56,2547516,1,6,부산광역시 사하구 다대동 일대,35.0571944,128.972922,두송반도명소,공룡의 전성시대였던 백악기 말의 부산지역 지질의 모습을 한눈에 보여주는 으뜸 명소이다. 특히 과거 지진이 기록된 다양한 산출 상태의 쇄설성 암맥과 고지진암이 절경이다. 퇴적층에서는 ...,http://tong.visitkorea.or.kr/cms/resource/68/2547068_image2_1.jpg
57,2547517,1,6,부산광역시 사하구 몰운대1길 14,35.0469576,128.9677698,몰운대,약 8천만년 전 백악기 말에 쌓인 하부다대포층과 그 후 부산지역 지각의 변형과정을 한눈에 볼 수 있는 명소이다. 과거 ‘몰운도(沒雲島)’ 라는 섬이 었으나 낙동강에서 공급된 모래가 쌓이...,http://tong.visitkorea.or.kr/cms/resource/95/2675495_image2_1.jpg
58,2547518,1,3,대전광역시 동구 천개동로 41,36.3733883,127.4710089,대청호 추동습지,"추동인공생태습지는 대전시가 2008년 12월26일 습지보호구역으로 지정한 곳으로 멸종 위기종인 천연기념물 수달, 천연기념물 원앙 그리고 말똥가리, 흰목물떼새, 맹꽁이 등이 서식하고 있다. 슬...",http://tong.visitkorea.or.kr/cms/resource/02/2547102_image2_1.jpg
59,2547519,1,6,부산광역시 부산진구 초읍동 일대,35.1857804,129.0406831,백양산명소,"격렬했던 화산활동으로 분출된 물질이 쌓여 만들어진 다양한 화산쇄설암, 화산활동이 일시적으로 중단되었을 때 호수에서 퇴적된 퇴적암, 그리고 지하에서 이들을 관입한 화강암까지 부산의 ...",http://tong.visitkorea.or.kr/cms/resource/74/2547074_image2_1.jpg
60,2547520,1,6,부산광역시 서구 암남동 일대,35.0705034,129.0143024,송도반도명소,"약 8천만년 전 백악기 말에 쌓인 하부 다대포층과 그 후 부산지역 지각의 변형과정을 한눈에 볼 수 있는 명소이다. 해안가를 따라 다대포층의 퇴적암, 화산활동으로 생성된 화쇄류암, 용암이 ...",http://tong.visitkorea.or.kr/cms/resource/77/2547077_image2_1.jpg
61,2547521,1,3,대전광역시 동구 천개동로 41,36.3733883,127.4710089,대청호자연생태관,상수원보호지역인 청정한 대청호수가에 위치하여 자연과 사람이 조화를 이루는 환경 속에서 어린이들과 학생들이 즐거운 체험과 함께 소중한 자연을 이해하고 느낄 수 있는 곳이다. 뿐만 아...,http://tong.visitkorea.or.kr/cms/resource/07/2547107_image2_1.jpg
62,2547525,1,6,부산광역시 남구 오륙도로 137,35.0993277,129.1202127,오륙도명소,"각 섬마다 가파른 해안절벽과 파도의 침식에 의한 파식대, 각양각색의 해식동굴 등의 지형과 오랜 세월동안 사람의 간섭없이 자라난 동식물들, 그리고 짙푸른 바다가 한데 어우러져 장관을 이...",http://tong.visitkorea.or.kr/cms/resource/80/2547080_image2_1.jpg
63,2547535,1,6,부산광역시 해운대구 반여동,35.2049391,129.1315245,장산명소,"격렬했던 유문암질 화산활동으로 분출된 화산재, 용암, 화쇄류로 이루어진 산으로 구과상유문암, 유문암질 응회암, 반상유문암 등의 다양한 화산암들과 장산폭포, 돌서렁, 인셀베르그 등의 웅...",http://tong.visitkorea.or.kr/cms/resource/87/2547087_image2_1.jpg
64,2547537,1,6,부산광역시 영도구 동삼동 일대,35.0708907,129.0745195,태종대명소,"백악기말에 호수에서 쌓인 퇴적층이 해수면 상승으로 파도에 의해 침식되어 만들어진 파식대지, 해식애, 해안동굴 등의 암벽해안으로 유명한 부산을 대표하는 해안 경관지이다. 구상혼펠스, ...",http://tong.visitkorea.or.kr/cms/resource/94/2547094_image2_1.jpg
65,2549146,1,38,전라남도 장성군 북하면 백양로 1116,35.425852,126.8792119,내장산 국립공원(백암),호남 5대의 명산 중 하나이자 한국을 대표하는 8경 중 하나로 손꼽히는 곳으로 1971년 우리나라 8번째 국립공원으로 지정되었다. 면적은 80.708k㎡이다. 신선봉(763m)을 주봉으로 하는 내장산은 봉...,http://tong.visitkorea.or.kr/cms/resource/12/2548712_image2_1.jpg
66,2549148,1,4,대구광역시 달성군 화원읍 구라리 1769,35.8241603,128.4828818,달성하천습지,"낙동강과 금호강, 진천천과 대명천이 합류하는 곳에 형성된 광활한 하천습지로, 총면적은 약 2㎢에 이른다. 과거에는 범람원(홍수로 인해 하천이 거듭 범람하여 퇴적, 생성된 토양)이었으며, ...",http://tong.visitkorea.or.kr/cms/resource/32/2547332_image2_1.jpg
67,2549149,1,38,전라남도 구례군 마산면 화엄사로 402-31,35.2422727,127.4901014,국립 종복원기술센터,"국립공원 관리공단 종복원기술원은 우리나라에서 사라져 가는 멸종위기동식물의 연구 · 복원사업을 현장에서 시행하고 있으며, 현재 지리산국립공원 반달가슴곰, 설악산과 월악산국립공원...",http://tong.visitkorea.or.kr/cms/resource/16/2548716_image2_1.jpg
68,2549150,1,38,전라남도 구례군 마산면 화엄사로 356,35.2410528,127.487967,지리산 남부 국립공원,"1967년 최초의 국립공원으로 지정된 지리산은 경남의 하동, 함양, 산청, 전남의 구례, 전북의 남원 등 3개 도, 5개 시군에 걸쳐 483.022㎢의 가장 넓은 면적을 지닌 산악형 국립공원이다. 둘레가 320...",http://tong.visitkorea.or.kr/cms/resource/24/2548724_image2_1.jpg
69,2549151,1,38,전라남도 완도군 완도읍 개포로62번길 17-12,34.3177101,126.7461283,다도해 국립공원(완도),"서남 해안과 해상 지역에 흩어져 있는 우리나라 최대 면적의 국립공원이다. 1981년 14번째 국립공원으로 지정되었으며 면적은 2,266.221㎢(육지 291.023㎢, 해상 1,975.198㎢)에 달한다. 따뜻한 해양성 ...",http://tong.visitkorea.or.kr/cms/resource/29/2548729_image2_1.jpg
70,2549153,1,35,경상북도 영주시 풍기읍 죽령로1720번길 76,36.9091932,128.4591987,소백산국립공원(영주),"1987년 18번째 국립공원으로 지정되었으며 면적은 322.011㎢로 지리산, 설악산, 오대산에 이어 산악형 국립공원 가운데 네 번째로 넓다. 해발 1,439.5m인 비로봉을 중심으로 국망봉(1,420.8m), 연화봉(1,...",http://tong.visitkorea.or.kr/cms/resource/69/2548869_image2_1.jpg
71,2549155,1,38,전라남도 목포시 통일대로 102-1,34.8012874,126.4353221,다도해 국립공원(서부),"서남 해안과 해상 지역에 흩어져 있는 우리나라 최대 면적의 국립공원이다. 1981년 14번째 국립공원으로 지정되었으며 면적은 2,266.221㎢(육지 291.023㎢, 해상 1,975.198㎢)에 달한다. 따뜻한 해양성 ...",http://tong.visitkorea.or.kr/cms/resource/33/2548733_image2_1.jpg
72,2549157,1,38,전라남도 곡성군 오곡면 기차마을로 232,35.2780735,127.3077987,곡성섬진강물따라300리나들길1,섬진강을 품고 있는 곡성은 자연 그대로를 간직하고 있다. 계절마다 멋스러움을 띠는 섬진강을 끼고 걷는 곡성 생태 탐방로는 사실 출발지나 목적지가 필요가 없다. 어느 방향으로 가든 섬진...,http://tong.visitkorea.or.kr/cms/resource/36/2548736_image2_1.jpg
73,2549158,1,38,전라남도 곡성군 오곡면 기차마을로 233,35.2768857,127.3072411,곡성섬진강물따라300리나들길2,계절마다 멋스러움을 띠는 섬진강을 끼고 걷는 곡성 생태 탐방로는 어느 방향으로 가든 섬진강의 모습 그대로를 느낄 수가 있다. 가는 곳마다 무심한 듯 흐르는 강물은 걷는 이들에게 여유로...,http://tong.visitkorea.or.kr/cms/resource/40/2548740_image2_1.jpg
74,2549159,1,35,경상북도 문경시 문경읍 새재로 932,36.7615936,128.0769795,문경새재 도립공원,"문경읍에서 서북쪽으로 깊은 협곡을 따라 3.5km 가면 조선 숙종 34년 (1708년)에 쌓은 영남 제 1관문인 주흘관문에 이르며, 3km 더 가면 제 2관문인 조곡관, 이곳에서 3.5km 떨어진 곳에 제 3관문인 조...",http://tong.visitkorea.or.kr/cms/resource/76/2548876_image2_1.jpg
75,2549161,1,38,전라남도 해남군 송지면 땅끝마을길 42,34.2998132,126.5272783,땅끝길,국토순례길의 일번지 땅끝 해남! 한반도의 기를 품은 백두대간이 길고 장엄한 호흡을 멈추고 창망한 바다를 향해 푸른 꿈을 다시 꾸는 곳에서 땅끝길&순례길은 시작된다. 더 이상 갈 수 없는 ...,http://tong.visitkorea.or.kr/cms/resource/50/2548750_image2_1.jpg
76,2549163,1,35,경상북도 상주시 도남2길 137,36.4443412,128.2550047,낙동강생태문화탐방로 나각산권,산 전체가 둥글고 봉을 쌓아올린 암반은 나각모양이다. 정상 못미처 좌우측에 있는 봉 중 하나는 원봉이고 또 하나는 첨봉으로 두 개의 봉이 나란히 있다. 보는 방향에 따라 모습을 달리한다. ...,http://tong.visitkorea.or.kr/cms/resource/86/2548886_image2_1.jpg
77,2549164,1,35,경상북도 상주시 도남2길 137,36.4443412,128.2550047,낙동강생태문화탐방로 청룡사권,산 전체가 둥글고 봉을 쌓아올린 암반은 나각모양입니다. 정상 못미처 좌우측에 있는 봉 중 하나는 원봉이고 또 하나는 첨봉으로 두 개의 봉이 나란히 있다. 보는 방향에 따라 모습을 달리한다...,http://tong.visitkorea.or.kr/cms/resource/90/2548890_image2_1.jpg
78,2549166,1,35,경상북도 상주시 도남2길 137,36.4443412,128.2550047,낙동강생태문화탐방로 경천대권,산 전체가 둥글고 봉을 쌓아올린 암반은 나각모양이다. 정상 못미처 좌우측에 있는 봉 중 하나는 원봉이고 또 하나는 첨봉으로 두 개의 봉이 나란히 있다. 보는 방향에 따라 모습을 달리한다. ...,http://tong.visitkorea.or.kr/cms/resource/97/2548897_image2_1.jpg
79,2549167,1,35,경상북도 영주시 선비로 213,36.8230844,128.6172089,소백산자락길 동무삼기,"소백산자락길은 2009년 문화체육관광부 선정 ‘문화생태탐방로’로 가장 먼저 이름을 올렸고, 2011년 ‘한국관광의 별’로 등극되었다. 영남의 진산이라 불리는 소백산 자락을 한바퀴 감아도는...",http://tong.visitkorea.or.kr/cms/resource/00/2548900_image2_1.jpg
80,2549170,1,39,제주특별자치도 제주시 한림읍 한림로 300,33.3883099,126.2394248,협재굴,"제주도의 대표적인 용암동굴로, 동굴의 길이는 약 200m, 너비 10m, 높이는 5m 정도의 규모이며, 250십만년 전 한라산 일대의 화산이 폭발하면서 생성되었다. 동굴 내부에는 천장에서 뻗어 나온 석...",http://tong.visitkorea.or.kr/cms/resource/34/2549034_image2_1.jpg
81,2549171,1,35,경상북도 울진군 금강송면 불영계곡로 1710,36.9349923,129.2490189,왕피천생태탐방로,"식생이 우수하고 옛 정취를 느낄 수 있는 ‘울진 왕피천’, 울진의 빼어난 전경과 친환경적이고 우수한 프로그램을 몸소 체험할 수 있는 곳이다. 멸종위기종과 희귀 야생동식물의 서식지 이며...",http://tong.visitkorea.or.kr/cms/resource/02/2548902_image2_1.jpg
82,2549173,1,39,제주특별자치도 제주시 조천읍 동백로 77,33.5095241,126.7152691,동백동산 습지센터,"약 1만여 년 전 형성된 용암대지 위에 뿌리내린 숲 곶자왈은 비가 오면 수십, 수백 개의 습지가 형성되는 특별한 지형으로, 2011년 람사르 습지 보호지역으로 지정됨은 물론, 유네스코 세계지질...",http://tong.visitkorea.or.kr/cms/resource/40/2549040_image2_1.jpg
83,2549174,1,35,경상북도 청도군 운문면 공암길 64,35.7551087,128.9540239,운문호반에코트레일,운문호반에코트레일은 공암리 복지회관에서 출발하여 공암풍벽 휴게데크까지 약 2km의 거리를 왕복으로 걷는 코스이다. 운문호반의 경치를 만끽하며 걷다보면 약 1시간정도 소요된다. ◎ 이...,http://tong.visitkorea.or.kr/cms/resource/05/2548905_image2_1.jpg
84,2549175,1,7,울산광역시 중구 성안동 761번지 일원,35.5790441,129.313507,성안 숯못 자연생태공원,숯못에는 '삼천 갑자를 살았던 동방삭'과 그를 잡았다는 '마고 할미' 전설이 전해온다. 이 숯못은 작은 반티이못(함지못)이라 할 정도로 작은 못이었으나 지금은 시의 지원을 받아 확장을 하여...,http://tong.visitkorea.or.kr/cms/resource/25/2547125_image2_1.jpg
85,2549177,1,39,제주특별자치도 서귀포시 남원읍 태수로 552,33.3270671,126.7170176,물영아리 오름,"오름은 주소가 산지로 되어있어, 내비게이션 검색시 정확한 위치를 알 수 없거나, 주차장이 따로 없는 곳이 많다. 또한 일부 오름은 사유지로, 출입이 제한되거나 통제되어있는 곳도 있다. 이...",http://tong.visitkorea.or.kr/cms/resource/49/2549049_image2_1.jpg
86,2549179,1,7,울산광역시 중구 내오산로 67,35.5710666,129.3082401,태화강,700여 종이 넘는 동식물의 서식지이자 생명의 강으로 다시 태어난 ‘태화강.’ 근대화가 진행되면서 오·폐수 유입으로 인한 오염이 심각했지만 2004년 ‘에코플러스 울산선언’과 2005년 ‘태...,http://tong.visitkorea.or.kr/cms/resource/29/2547129_image2_1.jpg
87,2549180,1,39,제주특별자치도 서귀포시 1100로 1555,33.3456898,126.4426587,제주1100 고지습지,1100고지는 제주시와 서귀포시 중문동을 잇는 1100 도로의 가장 높은 곳에 위치해 있으며 우리나라에서 가장 높은 곳에 위치한 국도로 유명했던 곳이다. 한라산의 아름다운 모습을 쉽게 감상할 ...,http://tong.visitkorea.or.kr/cms/resource/54/2549054_image2_1.jpg
88,2549181,1,35,경상북도 청도군 운문면 운문사길 529,35.6570524,128.9734314,청도 신화랑 운문 에코트레일,청도 신화랑 에코트레일은 운문산 일대와 동창천 일대의 두 구간 이다. 문산 구간은 운문산 군립공원과 생태경관보전지역 일원으로 천혜의 자연환경을 간직한 곳입니다. 곳곳에 기암괴석과 ...,http://tong.visitkorea.or.kr/cms/resource/12/2548912_image2_1.jpg
89,2549182,1,35,경상북도 안동시 도산면 가송길 162-133,36.7643256,128.8845418,퇴계오솔길,첩첩산중 유장하게 흘러가는 낙동강 물줄기 따라서 길은 끊어질 듯 이어진다. 퇴계 이황이 거닐던 오솔길 따라 다시 걸어보는 이 길은 낙동강 상류의 비경 지대로 강 전체를 통틀어 가장 아름...,http://tong.visitkorea.or.kr/cms/resource/22/2548922_image2_1.jpg
90,2549186,1,38,전라남도 구례군 문척면 죽마리 838,35.1733639,127.469805,섬진강 생태탐방로,"섬진강은 백두대간과 지리산 등 고산준령으로 둘러 싸여서 약간의 평야지대를 제외하고는 강과 계곡이 장관을 이루고 있으며, 하천 주변의 산자락을 따라 마을들이 형성되어 있다. 구간에는 ...",http://tong.visitkorea.or.kr/cms/resource/53/2548753_image2_1.jpg
91,2549188,1,37,전라북도 부안군 변산면 방파제길 11,35.625939,126.4711419,변산반도 국립공원,변산반도는 1988년 우리나라 19번째 국립공원으로 지정되었으며 면적은 153.934㎢이다. 변산반도는 산악지역인 내변산과 해안가를 중심으로 하는 외변산으로 나눌 수 있다. 내변산은 백악기에 ...,http://tong.visitkorea.or.kr/cms/resource/58/2547458_image2_1.jpg
92,2549189,1,38,전라남도 순천시 해룡면 와온길 133,34.8458248,127.5260107,순천만백리길,"순천만의 절경과 자연생태를 감상하며 걷는 해안길이다. 순천만은 광활한 갯벌의 양 옆으로 구릉지가 널리 펼쳐져 있고 순천만 입구에는 하천이 유입되어 갈대와 칠면초 군락이 주를 이루며, ...",http://tong.visitkorea.or.kr/cms/resource/59/2548759_image2_1.jpg
93,2549190,1,39,제주특별자치도 서귀포시 서홍로 4-42,33.2497971,126.5548648,서귀포시 걸매생태공원,서귀포시 서홍동 천지연폭포 상류에 위치하고 있는 걸매생태공원은 인간과 자연이 공존하는 생태도시의 표본이다. 국내 최대 관광의 보고인 천지연폭포를 보호하고 친환경적인 자연생태를 ...,http://tong.visitkorea.or.kr/cms/resource/69/2549069_image2_1.jpg
94,2549191,1,38,전라남도 장흥군 장흥읍 우드랜드길 142,34.6720409,126.9318444,억불산명품테마길,"제1, 2코스는 등산로를 따라 정상을 향하다 보면, 장흥천문과학관이 나오고 조금 더 오르면 보호수로 지정 되어 억불산을 상징했던 큰소나무(수령200년)가 나온다. 2004년 태풍 때 벼락으로 인해 ...",http://tong.visitkorea.or.kr/cms/resource/60/2548760_image2_1.jpg
95,2549192,1,35,경상북도 울진군 근남면 울진북로 245-5,36.9712297,129.3987694,울진 금강소나무숲길,"경북 울진군 서면 소광리 금강소나무 집단 분포지는 숙종때 황장봉산으로 지정 관리 하였으며, 1959년 육종림으로 지정된 후 2001년 산림유전자원보호림으로 지정할 정도로 유명한 숲으로 금강...",http://tong.visitkorea.or.kr/cms/resource/32/2548932_image2_1.jpg
96,2549194,1,37,전라북도 정읍시 내장산로 1207 내장산국립공원탐방안내소,35.4878051,126.907707,내장산 국립공원,호남 5대의 명산 중 하나이자 한국을 대표하는 8경 중 하나로 손꼽히는 곳으로 1971년 우리나라 8번째 국립공원으로 지정되었다. 면적은 80.708k㎡이다. 신선봉(763m)을 주봉으로 하는 내장산은 봉...,http://tong.visitkorea.or.kr/cms/resource/55/2547455_image2_1.jpg
97,2549196,1,38,전라남도 신안군 증도면 증도 모실길,35.0139122,126.1465327,증도 모실길,"증도는 담양, 완도와 함께 아시아 최초의 슬로시티로 지정된 곳으로, 느려서 행복한 섬이다. 증도에 내리면 우선 눈에 띄는 것은 우리나라 최대의 소금 생산지라는 광활한 태평염전이다. 염전 ...",http://tong.visitkorea.or.kr/cms/resource/70/2548770_image2_1.jpg
98,2549197,1,39,제주특별자치도 제주시 명림로 520,33.4448954,126.6256807,제주 노루생태관찰원,"2007년 8월에 문을 연 이곳 노루생태관찰원에는 200여 마리의 노루가 자연에서 자유로이 뛰놀고 있고, 이를 관찰할 수 있는 관찰로와 함께 1ha의 면적에 상시관찰원이 조성되어 있으며 노루의 생...",http://tong.visitkorea.or.kr/cms/resource/75/2549075_image2_1.jpg
99,2549200,1,38,전라남도 장흥군 장흥읍 건산리 일대,34.6788346,126.9099175,탐진강-강진만생태탐방로,"장흥 중심을 흐르는 1급수 탐진강 둔치를 따라 강진만까지 이어지는 생태 탐방로로, 징검여울, 생태관찰로, 지압로 등을 걷다보면 따스한 봄빛처럼 마음이 푸근해진다. * 문의 : 061-860-0224 * 관...",http://tong.visitkorea.or.kr/cms/resource/72/2548772_image2_1.jpg
100,2549202,1,32,강원도 태백시 태백로 283-29,37.1371815,129.0011426,용연동굴,"용연동굴은 백두대간의 중추인 금대봉 하부능선 해발 920m에 자리잡고 있다. 용연동굴이 일반인들에게 공개된 연대는 확실히 알 수 없으나, 동굴 깊은 곳에 임진왜란 때 피난했다는 내력의 붓...",http://tong.visitkorea.or.kr/cms/resource/22/2548622_image2_1.jpg
101,2549203,1,35,경상북도 울진군 근남면 불영계곡로 3532,36.9662414,129.3808445,민물고기 생태체험관,"민물고기 단일테마로 국내 최고수준인 ""경상북도 민물고기생태체험관""은 우리나라 민물고기의 우수성과 아름다움을 널리 알리고 자라나는 청소년 및 어린이들에게 살아있는 생태체험 학습장...",http://tong.visitkorea.or.kr/cms/resource/47/2548947_image2_1.jpg
102,2549204,1,39,제주특별자치도 서귀포시 대정읍 중산간서로 2868,33.2747785,126.235335,무릉2리마을,"아름다운 환경과 넉넉한 인심이 살아있는 서귀포시 무릉도원마을이 지금 제2의 도약으로 새롭게 발전하고 있다. 무릉2리는 제주도 서남쪽에 위치한 중산간마을로 170가구에 540여명이 인향동, ...",http://tong.visitkorea.or.kr/cms/resource/80/2549080_image2_1.jpg
103,2549205,1,35,경상북도 문경시 가은읍 용추길 31-35,36.6581542,127.9540104,국립대야산자연휴양림,"관광도시로 널리 알려진 문경시의 8경 중 중심부에 위치하고 있으며, 대야산(930m)과 둔덕산(970m) 사이로 흐르는 용추계곡, 선유동계곡의 수려하고 청정한 물로 인해 여름철 많은 방문객이 즐겨 ...",http://tong.visitkorea.or.kr/cms/resource/50/2548950_image2_1.jpg
104,2549206,1,32,강원도 정선군 화암면 화암동굴길 12-8,37.3502586,128.7898604,화암동굴,화암관광단지 내에 위치한 금광산과 석회석 자연동굴이 함께 어우러져 있는 세계 유일의 화암동굴은 국내 최초로 테마형 동굴로 개발하여 금을 채광하던 천포광산에 상부갱도 515m 구간에는 ...,http://tong.visitkorea.or.kr/cms/resource/32/2548632_image2_1.jpg
105,2549208,1,39,제주특별자치도 서귀포시 예래로 82,33.2542588,126.3979342,예래마을,"예래생태마을은 생태문화 체험학습장으로서 손색이 없는 생태관광지로서, 마을 전체가 다른 곳에 비해 자연 생태계의 보존율이 높다. 생태마을 내부에는 갯깍주상절리대와 동굴유적, 조른모...",http://tong.visitkorea.or.kr/cms/resource/91/2549091_image2_1.jpg
106,2549209,1,38,전라남도 장흥군 회진면 해양낚시길 137,34.4701023,126.9766105,정남진해양낚시공원,"정남진 해양낚시공원은 우리군이 해양 레저관광시대를 대비하여 전국 바다낚시의 명소로 잘 알려진 회진면 대리에 낚시교와 부잔교식낚시터, 육상낚시터, 콘도식낚시터 및 안내소, 퍼걸러, ...",http://tong.visitkorea.or.kr/cms/resource/88/2548788_image2_1.jpg
107,2549210,1,37,전라북도 남원시 주천면 정령치로 255,35.3895974,127.4613141,지리산 북부 국립공원,"1967년 최초의 국립공원으로 지정된 지리산은 경남의 하동, 함양, 산청, 전남의 구례, 전북의 남원 등 3개 도, 5개 시군에 걸쳐 483.022㎢의 가장 넓은 면적을 지닌 산악형 국립공원이다. 둘레가 320...",http://tong.visitkorea.or.kr/cms/resource/01/2547501_image2_1.jpg
108,2549211,1,38,전라남도 함평군 함평읍 운교리 500-1번지,35.1353259,126.5030228,함평곤충생태관,국내의 나비 및 곤충관찰원 등의 연출을 통하여 청정한 자연의 생명력과 생태계의 이치를 깨닫고 느끼게 하여 일상을 벗어나 여유를 즐길 수 있는 생태학습교육장이다. * 문의 : 061-320-2213 * ...,http://tong.visitkorea.or.kr/cms/resource/89/2548789_image2_1.jpg
109,2549214,1,39,제주특별자치도 서귀포시 남원읍 하례중앙로 95,33.2692431,126.6254292,하례리생태관광마을,"한라산에서 서귀포바다에 이르는 13km 하천, ‘서귀포 효돈천’은 천연기념물이다. 효돈천 주변에는 난대식물대, 활엽수림대, 관목림대, 고산림대 등 한라산식물군이 모두 존재한다. 특히 법적...",http://tong.visitkorea.or.kr/cms/resource/99/2549099_image2_1.jpg
110,2549215,1,37,전라북도 고창군 고창읍 고인돌공원길 74,35.4418636,126.6520149,고창선사문화탐방로1,고창 생태문화탐방로는 유네스코 생물권보전지역으로 지정된 고창군 전체를 돌아 볼 수 있다. 또한 내륙습지인 운곡습지와 연안습지인 고창 갯벌습지가 있어 다양한 생물이 살아가는 생태계...,http://tong.visitkorea.or.kr/cms/resource/00/2547500_image2_1.jpg
111,2549216,1,35,경상북도 문경시 농암면 속리길 40,36.5682412,127.980895,문경한지체험장,유서깊은 심산계곡에 순박한 마음으로 반세기 동안 한지를 옛날 그대로 생산하고 있으며 아직까지 한번도 한지를 떠나 그리고 장소를 떠나 생활해 본 적이 없다. 전통을 잇기 위해 한지제작도...,http://tong.visitkorea.or.kr/cms/resource/65/2548965_image2_1.jpg
112,2549218,1,37,전라북도 고창군 고창읍 고인돌공원길 75,35.4418636,126.6520149,고창선사문화탐방로2,고창 생태문화탐방로는 유네스코 생물권보전지역으로 지정된 고창군 전체를 돌아 볼 수 있다. 내륙습지인 운곡습지와 연안습지인 고창 갯벌습지가 있어 다양한 생물이 살아가는 생태계와 아...,http://tong.visitkorea.or.kr/cms/resource/94/2547494_image2_1.jpg
113,2549219,1,38,전라남도 순천시 서면 청소년수련원길 170,35.0464004,127.4773945,순천자연휴양림,"순천자연휴양림은 다량의 피톤치드를 배출하는 소나무 등 침엽수림으로 이루어져 있고, 생태숲·청소년수련원 등 다양한 산림휴양·체험을 위한 기반시설이 잘 갖추어져 있다. 숲속의 집은 내...",http://tong.visitkorea.or.kr/cms/resource/07/2548807_image2_1.jpg
114,2549220,1,34,충청남도 공주시 반포면 동학사1로 327-6,36.3566131,127.2324566,계룡산 국립공원,충남 제일의 명산 계룡산국립공원은 1968년 우리나라 2번째 국립공원으로 지정되었으며 면적은 65.335㎢이다. 계룡산 정상인 천황봉(845m)을 중심으로 10개에 달하는 봉우리 사이에 약 7개의 계곡...,http://tong.visitkorea.or.kr/cms/resource/79/2547379_image2_1.jpg
115,2549221,1,35,경상북도 문경시 문경읍 활공장길 80,36.7364313,128.1540507,문경활공랜드,"항공레포츠의 메카로 자리 잡은 문경 활공랜드는 편리한 교통망과 접근성이 양호한 전국 최고의 입지여건을 갖추고 있으며, 문경읍이 아늑한 분지로 상승기류 형성이 잘되고 서, 남, 북풍이 ...",http://tong.visitkorea.or.kr/cms/resource/70/2548970_image2_1.jpg
116,2549222,1,38,전라남도 장흥군 장흥읍 우드랜드길 180,34.6681616,126.9338113,정남진(편백숲우드랜드),정남진 장흥은 서울 광화문에서 정남 쪽에 위치한 관광지로 산과 바다와 강이 있는 아름다운 생태 고을이다.그중에서도 초록의 상쾌한 바람과 아름드리 40년생 편백나무가 빼곡히 들어선 정남...,http://tong.visitkorea.or.kr/cms/resource/09/2548809_image2_1.jpg
117,2549223,1,37,전라북도 고창군 고창읍 고인돌공원길 75,35.4418636,126.6520149,고창선사문화탐방로3,고창 생태문화탐방로는 유네스코 생물권보전지역으로 지정된 고창군 전체를 돌아 볼 수 있다. 내륙습지인 운곡습지와 연안습지인 고창 갯벌습지가 있어 다양한 생물이 살아가는 생태계와 아...,http://tong.visitkorea.or.kr/cms/resource/92/2547492_image2_1.jpg
118,2549224,1,34,충청남도 태안군 태안읍 귀실길 9,36.746357,126.2923647,태안해안 국립공원,"태안해안국립공원은 1978년 우리나라 13번째 국립공원으로 지정되었다. 태안반도와 안면도를 남북으로 아우른 230km의 해안선에 27개의 해변이 펼쳐지며, 전체 면적은 377.019㎢이다. 예로부터 큰 ...",http://tong.visitkorea.or.kr/cms/resource/72/2547372_image2_1.jpg
119,2549225,1,35,경상북도 상주시 공성면 웅산로 705,36.2798081,128.0439916,백두대간 숲 생태원,백두대간의 산림생태자원 보전과 보호를 위해 생태교육이 필요한 시점에 백두대간 생태교육장은 산림청과 경상북도 상주시의 노력으로 백두대간 마루금에 국내 유일한 유ㆍ소년 숲생태 전문...,http://tong.visitkorea.or.kr/cms/resource/77/2548977_image2_1.jpg
120,2549226,1,38,전라남도 곡성군 옥과면 합강리 499-1번지,35.3169385,127.1698764,곡성군섬진강 자연학습원,"섬진강 자연학습원은 농촌지역의 문닫은 학교를 자연학습원으로 조성하여 자연경관을 보전하면서 생생하고 현장감있는 자연생태 학습과 다양한 체험의 기회를 제공하고, 환경친화적인 환경...",http://tong.visitkorea.or.kr/cms/resource/13/2548813_image2_1.jpg
121,2549227,1,34,충청남도 태안군 이원면 원이로 2949,36.9668309,126.3014965,솔향기길 1코스,"태안 솔향기길은 최근 증가하는 걷기여행 수요에 대응하고, 2007년 기름유출사고로 침체된 지역경제활성화를 위해 조성되었다. 당시 기름제거작업을 위해 이용하던 방제로를 과거 군부대 해안...",http://tong.visitkorea.or.kr/cms/resource/67/2547367_image2_1.jpg
122,2549229,1,35,경상북도 문경시 호계면 상무로 377,36.6455909,128.1946196,성보예술촌,"성보촌은 ‘옛것이 새 것이다’라는 설립정신으로 세워졌다. 경북 문경시 호계면 영강변 1만 2천여 평의 부지에 문화체험 프로그램을 비롯하여, 각종 전시관과 수련 및 단체행사에 적합한 시...",http://tong.visitkorea.or.kr/cms/resource/84/2548984_image2_1.jpg
123,2549231,1,34,충청남도 태안군 이원면 꾸지나무길 81-28,36.9358334,126.2938582,솔향기길 2코스,"태안 솔향기길은 최근 증가하는 걷기여행 수요에 대응하고, 2007년 기름유출사고로 침체된 지역경제활성화를 위해 조성되었다. 당시 기름제거작업을 위해 이용하던 방제로를 과거 군부대 해안...",http://tong.visitkorea.or.kr/cms/resource/64/2547364_image2_1.jpg
124,2549232,1,37,전라북도 군산시 내흥2길 197,35.9983254,126.7598199,금강생태문화탐방로1,"금강하구길은 군산의 여러 명소 중 단연코 주인공이다. 강변에는 금강유원지, 곰개나루관광지, 금강호시민공원, 금강호 휴게소 등이 조성되어 여행객들의 편의를 도모하고 있다. 겨울철이면 ...",http://tong.visitkorea.or.kr/cms/resource/86/2547486_image2_1.jpg
125,2549233,1,37,전라북도 군산시 나포면 철새로 987-1,36.0483731,126.8480303,금강생태문화탐방로2,"금강하구길은 군산의 여러 명소 중 단연코 주인공이다. 강변에는 금강유원지, 곰개나루관광지, 금강호시민공원, 금강호 휴게소 등이 조성되어 여행객들의 편의를 도모하고 있다. 겨울철이면 ...",http://tong.visitkorea.or.kr/cms/resource/81/2547481_image2_1.jpg
126,2549235,1,34,충청남도 태안군 이원면 볏가리길 62,36.8983022,126.2939986,솔향기길 3코스,"태안 솔향기길은 최근 증가하는 걷기여행 수요에 대응하고, 2007년 기름유출사고로 침체된 지역경제활성화를 위해 조성되었다. 당시 기름제거작업을 위해 이용하던 방제로를 과거 군부대 해안...",http://tong.visitkorea.or.kr/cms/resource/58/2547358_image2_1.jpg
127,2549239,1,35,경상북도 문경시 농암면 궁터길 181,36.6136128,127.9628909,궁터산촌생태체험마을,"낮에는 너무도 고요해 찾아드는 산새와 벗하고 밤이면 머리맡으로 별들이 아름답게 펼쳐지고 별똥별이 떨어지는 곳, 그래서 떠날 때 더없이 아쉬움이 남는 마을이 있다. 문경시 궁터마을이 바...",http://tong.visitkorea.or.kr/cms/resource/96/2548996_image2_1.jpg
128,2549242,1,38,전라남도 목포시 유달로 203,34.7912274,126.374314,목포시 특정자생식물원,"국내에서는 최초로 개관된 특정자생식물원은 환경오염으로 멸종위기에 처해있거나 요즘 들어 찾아보기 힘든 희귀·보호식물로 지정된 267점을 전시하고 있고, 이러한 희귀식물들을 증식·보급...",http://tong.visitkorea.or.kr/cms/resource/21/2548821_image2_1.jpg
129,2549243,1,35,경상북도 상주시 낙동면 승곡1길 34,36.3656077,128.2097901,낙동 승곡마을(농촌체험마을),"낙동승곡마을의 구상화강암은 세계 어느 지역에서도 볼 수 있는 것으로 국가지정 문화재 천연기념물로 지정되어있다. 이외에 마을에는 우리 민족의 얼과 전통이 깃든 문화재로 양진당, 추원...",http://tong.visitkorea.or.kr/cms/resource/97/2548997_image2_1.jpg
130,2549244,1,37,전라북도 고창군 성내면 신성리,35.5513616,126.7337655,동림저수지,한국의 멸종위기종인 수달이 동림저수지와 인근 수계로 이동하며 먹이활동을 하는 서식지일 뿐만 아니라 가창오리 외 다수의 조류가 찾아들고 있는 저수지로써 보존가치가 매우 높다. * 문...,http://tong.visitkorea.or.kr/cms/resource/73/2547473_image2_1.jpg
131,2549246,1,38,전라남도 순천시 국가정원1호길 47,34.9284391,127.4982691,순천만국가정원,순천만을 보호하기 위하여 조성한 순천만국가정원은 순천 도사동 일대 정원부지 112만㎡(34만 평)에는 나무 505종 79만 주와 꽃 113종 315만 본이 식재됐다. 튤립과 철쭉 등이 꽃망울을 터뜨려 장관...,http://tong.visitkorea.or.kr/cms/resource/24/2548824_image2_1.jpg
132,2549247,1,32,강원특별자치도 태백시 태백로 2249,37.1371815,129.0011426,태백고생대자연사 박물관,"전국에서 유일하게 고생대 지층 위에 건립된 고생대를 주제로 한 전문박물관이다. 고생대에 살았던 동식물의 화석과 모형, 당시 지층의 암석들이 전시되여 있다. 고생대의 바다 환경에서 생...",http://tong.visitkorea.or.kr/cms/resource/55/2611355_image2_1.bmp
133,2549248,1,37,전라북도 고창군 아산면 용계리 212번지,35.4752642,126.6325786,운곡 람사르,세계문화유산인 고인돌 유적이 현존하는 ‘고창 운곡람사르습지’ 운곡람사르습지는 동산지형 저층습지로 그 생태적 가치가 높아 습지보호지역으로 지정되었다. 총 864종의 동식물 생물다양...,http://tong.visitkorea.or.kr/cms/resource/03/2675603_image2_1.JPG
134,2549249,1,34,충청남도 서천군 마서면 장산로 916,36.0227574,126.742582,서천군 조류 생태 전시관,물새들의 중요한 채식지인 서해안의 갯벌이 점차 사라지고 간척이 무분별하게 추진되고 있는 상황에서 금강하구의 갯벌은 세계적으로도 보전되어야 할 중요한 지역으로 알려지고 있다. 금강...,http://tong.visitkorea.or.kr/cms/resource/27/2547427_image2_1.jpg
135,2549251,1,38,전라남도 구례군 마산면 화엄사로 402-25,35.2422727,127.4901014,지리산 생태탐방연수원,"청정한 국립공원이 가진 우수한 생태·문화·자원 등을 활용하여 다양한 수련·교류 등 체험활동을 통해 미래세대인 청소년의 품성 및 자질함양, 선진시민으로 육성 할 수 있는 지속가능한 에...",http://tong.visitkorea.or.kr/cms/resource/27/2548827_image2_1.jpg
136,2549253,1,38,전라남도 장흥군 대덕읍 신리옹암로 344,34.4509945,126.8702528,개매기체험,정남진의 고장인 장흥군에 가면 개매기체험장이라는 이색적인 나들이 명소가 있다. ‘개매기’란 밀물과 썰물의 차가 큰 바닷가에 그물을 쳐놓은 후 밀물 때 조류를 따라 들어온 물고기떼가 ...,http://tong.visitkorea.or.kr/cms/resource/30/2548830_image2_1.jpg
137,2549254,1,35,경상북도 예천군 효자면 상사곡길 27,36.7670406,128.4104843,사곡리마을,"사곡리는 2005년부터 무농약농산물 인증(43ha)을 계속해서 받고 있으며 청정자연환경을 잘 간직하고 있는 친환경농업의 최적지로 알려진 마을이다. 우렁이쌀,찰수수,고추 등 FTA,DDA등 어려운 농...",http://tong.visitkorea.or.kr/cms/resource/06/2549006_image2_1.jpg
138,2549256,1,35,경상북도 울진군 금강송면 불영계곡로 1710,36.9349923,129.2490189,수평마을(삼근리마을),"군청 소재지에서 36번 국도(國道)를 따라 서쪽으로 24㎞거리에 위치하고 있으며, 금강송면(金剛松面) 소재지 마을로 불영사계곡 (佛影寺溪谷)의 위쪽에 있는 광천(光川)이 마을 앞으로 달리고 ...",http://tong.visitkorea.or.kr/cms/resource/07/2549007_image2_1.jpg
139,2549257,1,38,전라남도 장흥군 회진면 회진리 200,34.4596027,126.9359514,선학동마을,멀리서 보면 마치 학이 날개를 펄럭이며 날아오르는 형상을 하고 있다는 관음봉 산자락에 위치한 장흥군 선학동 마을은 논과 다락밭의 유채꽃과 득량만의 푸른바다가 잘 조화를 이루고 있다. ...,http://tong.visitkorea.or.kr/cms/resource/34/2548834_image2_1.jpg
140,2549258,1,34,충청남도 서천군 마서면 금강로 1210,36.0246966,126.7216806,국립 생태원,"생태관 및 전시실에 대한 해설이 제공되며 이는 기본, 기획, 심화, 요약해설로 나뉜다. 기본해설은 에코리움의 대표전시물인 5대 기후대관을 생태해설사와 함께 둘러보는 프로그램이며, 기획...",http://tong.visitkorea.or.kr/cms/resource/15/2547415_image2_1.jpg
141,2549259,1,37,전라북도 전주시 완산구 바람쐬는길 21,35.8111831,127.1629259,전주자연생태 체험센터,"전주천 상류의 치명자산과 승암산 기슭에 자리 잡은 전주자연생태관이 전주권 자연생태의 명소로 자리매김 하고 있다. 1만8,766㎡ 부지면적에 지하1층 지상3층, 연면적 2,075㎡의 규모로 국ㆍ도...",http://tong.visitkorea.or.kr/cms/resource/32/2547532_image2_1.jpg
142,2549260,1,32,강원특별자치도 삼척시 노곡면 문의재로 2470,37.2664649,129.1791318,심마니마을(가시오가피 마을),"고려의 마지막 임금 공양왕이 궁터에서 은거할 시 두리봉의 영험함에 말에서 내려 3번 절함에 마읍이라 칭했다. 마을 생성 초기에는 화전과 약초, 송이를 캐다가 근래에 들어 황기, 당귀, 도라...",http://tong.visitkorea.or.kr/cms/resource/88/2548688_image2_1.jpg
143,2549261,1,35,경상북도 상주시 이안면 양범안룡길 89,36.5813678,128.1419752,황금소마을(농촌체험마을),지역교류센터와 전통공예 체험 센터를 마련하여 운영중인 황금소 마을은 상주시 이안면에 위치하여 다양한 체험활동이 가능한 풍경 좋은 곳이다. * 문의 : 054-541-9927 * 관련 홈페이지 : http://ww...,http://tong.visitkorea.or.kr/cms/resource/09/2549009_image2_1.jpg
144,2549262,1,38,전라남도 순천시 낙안면 금산리,34.9383636,127.3546448,순천시낙안면꽃마차마을,넉넉한 인정과 훈훈한 인심을 가지고 있는 꽃마차 마을은 금전산이 마을을 병풍처럼 감싸안은 지형으로 여름에는 시원하고 겨울에는 따뜻하다. 또한 훼손되지 않은 돌담길과 옛 가옥이 잘 보...,http://tong.visitkorea.or.kr/cms/resource/36/2548836_image2_1.jpg
145,2549263,1,34,충청남도 서산시 부석면 천수만로 655-73,36.6299525,126.3840027,서산 버드랜드,서산버드랜드는 세계적인 철새도래지로 유명한 서산천수만을 체계적으로 보전관리하고 체험과 교육중심의 생태관광 활성화에 주력하고자 조성된 철새 생태공원이다. 철새를 주제로 다양한 ...,http://tong.visitkorea.or.kr/cms/resource/10/2547410_image2_1.jpg
146,2549264,1,38,전라남도 순천시 별량면 거차길 57-16,34.8370961,127.4466032,순천시별량면거차뻘배체험마을,"거차뻘배 체험장은 2헥타르(ha)의 넓은 공유수면에서 뻘배타기, 꼬막캐기, 칠게잡기, 짱뚱어잡기, 갯벌미끄럼틀타기 등 다양한 갯벌생태체험을 할 수 있는 곳이다. 대표체험은 뻘배타기로, 한...",http://tong.visitkorea.or.kr/cms/resource/40/2548840_image2_1.jpg
147,2549266,1,37,전라북도 무주군 설천면 무설로 1324,36.0131532,127.7586118,무주반디랜드 반딧불이자연학교,"무주 반디별 천문관, 통나무집, 청소년수련원, 곤충박물관, 청소년 야영장, 반딧불 연구소가 있는 체험학습교육공간이다. 곤충박물관 - 반딧불이를 비롯한 이천여종 만칠천여마리의 전세계 ...",http://tong.visitkorea.or.kr/cms/resource/26/2547526_image2_1.jpg
148,2549267,1,32,강원특별자치도 정선군 여량면 중동길 38,37.5189729,128.7401759,중동마을,구절리는 명주군 왕산면에 속해 있다가 1973년 7월 1일 행정구역 개편때 정선군 북면으로 편입되었다. 구절이란 명칭은 이곳을 흐르는 하천이 유천리 강과 어우러져 구절양장의 형태로 흐른다...,http://tong.visitkorea.or.kr/cms/resource/99/2548699_image2_1.jpg
149,2549268,1,38,전라남도 순천시 승주읍 고산도목길 9,35.0665087,127.3602873,순천시승주읍순천생태마을,"2006년 농림부로애서 녹색농촌체험마을로 지정한 이 마을은 전라남도 순천시 승주읍 도정리이며 400여 년 전인 1580년경 도목, 군장마을이 생긴 이래 청송 심씨와 청주 한씨가 들어오면서 형성된...",http://tong.visitkorea.or.kr/cms/resource/45/2548845_image2_1.jpg
150,2549270,1,38,전라남도 순천시 월등면 계월길 138,35.0620252,127.4045053,순천시월등면향매실마을,"대한민국 최대의 매화농장은 순천에 있는 향매실마을이다. 지금으로부터 50여년전에 처음 매화나무를 심기 시작하여, 현재는 약 25만평에 이르는 드넓은 들판을 매화나무가 가득 채우고 있다. ...",http://tong.visitkorea.or.kr/cms/resource/50/2548850_image2_1.jpg
151,2549271,1,37,전라북도 장수군 장수읍 뜬봉샘길 50,35.5909222,127.5002586,수분마을,"옛날부터 “물뿌랭이”마을이라 불리었으며 뿌랭이는 “뿌리”의 사투리로 물의 근원이 된다는 의미가 있다. 또한, 이곳 신무산은 금남호남정맥으로 금강과 섬진강으로 분수되는 지형적인 ...",http://tong.visitkorea.or.kr/cms/resource/64/2547464_image2_1.jpg
152,2549272,1,37,전라북도 진안군 부귀면 하수항길 9-20,35.8521827,127.3933744,하곡마을,진안군 부귀면 수항리 하곡마을은 운장산 맑은 물이 흘러내려와 물이 합쳐지는 해발 330m의 고랭지마을로 상곡과 중곡의 물이 하곡에서 합수되어 마을 앞 냇가로 흘러 들어가 그물목에 있다하...,http://tong.visitkorea.or.kr/cms/resource/60/2547460_image2_1.jpg
153,2549273,1,38,전라남도 순천시 주암면 운룡1길 41-2,35.0875962,127.2029851,순천시주암면순천용오름마을,"용이 구름을 안고 등천하는 형국인, 마을의 용당소에서 당장이라도 용이 승천할 것만 같다하여 용오름이라 불리는 용요름마을에서는 대단위 한봉을 하고 있어서, 한봉 채취는 물론이고, 밀랍...",http://tong.visitkorea.or.kr/cms/resource/56/2548856_image2_1.jpg
154,2549275,1,34,충청남도 홍성군 서부면 죽도리,36.5187606,126.4413963,에너지자립섬 자급자족 죽도,죽도는 홍성군의 하나뿐인 섬으로 1개의 유인도와 11개의 무인도로 이루어져 있는데 섬자체가 고기들의 집이며 산란장이다. 해상낚시터와 죽도 둘레길을 걸으며 느림의 여유와 힐링의 시간을 가질 수 있는 섬이다. 그리고 에너지 자립섬으로 마을 전체가 태양광 발전으로 생활하는 섬으로 친환경에너지의 산 교육장이다.,http://tong.visitkorea.or.kr/cms/resource/05/2547405_image2_1.jpg
155,1,2,1,서울특별시 중구 퇴계로20길 21 1층,37.5592406,126.985968,비건키친,채식,
156,2,2,1,서울특별시 종로구 인사동16길 3-6,37.5752599,126.983995,꽃밥에피다,한식,
157,3,2,1,서울특별시 종로구 북촌로 39 1층,37.5803146,126.984741,꽃밥에피다 북촌 친환경 그로서란트,한식,
158,202,2,1,서울특별시 종로구 북촌로 24-4,37.5790212,126.9855911,한뫼촌,한정식,
159,679,2,1,서울특별시 서대문구 연세로7안길 41 지하1층,37.5581772,126.934464,미스터리,호프,
160,876,2,1,서울특별시 용산구 이태원로 228-1 3층 4층,37.5354583,126.9992307,몽크스부처,양식,
161,1087,2,1,서울특별시 종로구 우정국로 56,37.5739619,126.983228,발우공양,사찰음식,
162,22029,2,36,경상남도 거제시 장목면 관포길 60,34.9898612,128.6964627,관포60,"카페,디저트",
163,24155,2,38,전라남도 장흥군 장흥읍 칠거리예양로 53,34.6766769,126.9020772,파이토랩,"카페,디저트",
164,30749,2,39,제주특별자치도 제주시 조천읍 신촌북3길 1,33.5372517,126.6188818,비오는날의숲,양식,
165,55027,2,1,서울특별시 종로구 필운대로 41 1층,37.5797223,126.9686012,소이로움,"카페,디저트",
166,68066,2,1,서울특별시 강남구 테헤란로 152 강남파이낸스센터 B1,37.5000263,127.0365456,채근담 역삼점,한정식,
167,71547,2,36,경상남도 합천군 가야면 가야산로 1340,35.7776301,128.1269411,해인식당,한식,
168,72522,2,2,인천광역시 중구 차이나타운로59번길 10,37.4740217,126.6185615,태화원,중식,
169,75730,2,1,서울특별시 마포구 망원로 79 3층,37.5576343,126.9055895,어라운드 그린,양식,
170,86472,2,1,서울특별시 동대문구 망우로18길 6,37.5896281,127.0623731,초록뜰식당,한식,
171,93193,2,36,경상남도 창원시 성산구 용지로 90 공성상가,35.2236571,128.6775961,화련정,한정식,
172,102540,2,1,서울 용산구 이태원로14길 21 1층,37.5334547,126.990849,스프라우트,샐러드,
173,110429,2,39,제주특별자치도 제주시 한림읍 한림로 518,33.4046266,126.2541916,AND 유 CAFE,햄버거,
174,126051,2,6,부산광역시 수영구 수영로611번길 39-4 1층,35.1604721,129.1114443,옥토가,베이커리,
175,147842,2,1,서울특별시 영등포구 시흥대로183길 10 1층,37.4912088,126.9068999,시나브로채식식당카페,한식,
176,149384,2,1,서울특별시 영등포구 신길로 176,37.5078509,126.9112138,아승지,사찰음식,
177,153377,2,36,경상남도 합천군 가야면 치인1길 13-23 백운식당,35.7905599,128.087613,백운식당,한식,
178,219739,2,31,경기도 수원시 영통구 광교호수공원로 80 앨리웨이광교 어라운드 라이프 3층,37.2739774,127.0612197,두수고방,사찰음식,
179,224515,2,1,서울특별시 용산구 한강대로 276-1 1층,37.5429771,126.9728182,카페 시바,퓨전음식,
180,243854,2,1,서울특별시 종로구 필운대로 55-1,37.5810534,126.968428,옥인동빵집,베이커리,
181,260013,2,31,경기도 고양시 일산동구 무궁화로93번길 45 1층,37.667852,126.7717286,빵갤러리아,베이커리,
182,271235,2,1,서울특별시 마포구 동교로17안길 51 1층,37.5565595,126.9187667,카페sun,퓨전음식,
183,272485,2,39,제주특별자치도 제주시 1100로 2977-10 제주901 Bldg. 2층 카페901,33.4530482,126.4862642,카페901,"카페,디저트",
184,281222,2,2,인천광역시 미추홀구 인하로 172,37.4487557,126.666979,여름동사무소,"카페,디저트",
185,306213,2,1,서울특별시 마포구 와우산로30길 13 101호,37.5541552,126.9299687,드렁큰비건,퓨전음식,
186,315847,2,36,경상남도 거창군 남하면 대야길 69-17,35.6372817,127.9640528,베지나랑키친,한식,
187,335197,2,35,경상북도 경주시 영불로 217 포시즌유스호스텔 1층,35.7823682,129.3256272,자연채식뷔페신라,한식 뷔페,
188,370039,2,36,경상남도 함안군 가야읍 성내남길 55 슬로우스테디,35.273352,128.3975883,슬로우스테디,"카페,디저트",
189,396860,2,1,서울특별시 광진구 구의강변로 57 서림빌딩 3층,37.5359253,127.0920863,날일달월,채식,
190,419884,2,33,충청북도 충주시 안림로 256 빛가람채식뷔페,36.9737141,127.9714125,빛가람 채식부페,한식뷔페,
191,455674,2,1,서울특별시 송파구 송파대로49길 50 B동 203호,37.5062774,127.0993879,잠백이샐러드 본점,샐러드,
192,458889,2,1,서울특별시 강남구 개포로22길 35,37.4769089,127.0494592,러빙헛 카페,"카페,디저트",
193,481127,2,31,경기도 시흥시 마유로423번길 24-9 1층,37.3542209,126.7389689,후레쉬 초이스,샐러드 뷔페,
194,489345,2,39,제주특별자치도 제주시 조천읍 선흘동2길 1,33.5116944,126.7059002,채식카페제주작은부엌,샐러드,
195,491597,2,4,대구광역시 동구 경대로 80 1층,35.8877349,128.6163751,스톡홀름 샐러드,샐러드,
196,524245,2,1,서울특별시 종로구 인사동10길 13,37.5743587,126.9857345,한과채,한식뷔페,
197,525849,2,37,전라북도 전주시 완산구 감나무로 61-13,35.8317602,127.1184157,러빙헛 서신점,샐러드뷔페,
198,535010,2,1,서울특별시 마포구 와우산로3길 38,37.545865,126.9208467,슬런치 팩토리,양식,
199,572367,2,1,서울특별시 용산구 신흥로 59,37.5437073,126.9872746,베제투스,이탈리아음식,
200,611452,2,36,경상남도 창원시 마산합포구 중앙남3길 46,35.1960725,128.5654837,팥이야기,한식,
201,629599,2,7,울산광역시 중구 함월3길 16,35.5745369,129.3056436,단지,퓨전음식,
202,631762,2,1,서울특별시 양천구 등촌로 80 삼성빌딩 3층 301호,37.5371636,126.8638856,배드매드브레드,베이커리,
203,634228,2,31,경기도 부천시 상동로117번길 57,37.5077727,126.7503225,상동한식부페,한식뷔페,
204,643001,2,4,대구광역시 수성구 달구벌대로 3224,35.8390137,128.7089469,타지마할인코리아,인도음식,
205,645596,2,39,제주특별자치도 제주시 고사마루길 109 제2동,33.4718739,126.473809,푸른솔맑은향 채식식당,사찰음식,
206,651901,2,31,경기도 용인시 기흥구 용구대로2335번길 25,37.2967256,127.1076748,뜰안채채식뷔페,한식뷔페,
207,659658,2,6,부산광역시 수영구 광안해변로370번길 9-32 노블스카이 9층,35.156747,129.134285,베지나랑,한식,
208,686702,2,4,부산광역시 해운대구 센텀남대로 59 지하 1층,35.1698533,129.1310696,카르파쵸 롯데백화점센텀시티점,샐러드뷔페,
209,691190,2,1,서울특별시 관악구 남부순환로188길 9 차일드빌딩 1층,37.4841551,126.9335742,알프리베 베이커리카페,베이커리,
210,699014,2,35,경상북도 경주시 보불로 299-5,35.8096348,129.3062794,산드레,한정식,
211,709131,2,1,서울특별시 서초구 마방로6길 7-27 1층,37.476295,127.0427131,일상,사찰음식,
212,736310,2,31,경기도 고양시 일산서구 대화1로 19 대화마을1단지,37.670336,126.7295392,하늘빵별파이,베이커리,
213,736398,2,37,전라북도 완주군 소양면 전진로 907,35.8526108,127.258347,미쁨채식뷔페,한식뷔페,
214,763313,2,33,충청북도 충주시 신니면 장고개2길 62-46,36.9869995,127.7377459,열명의농부,한식뷔페,
215,764874,2,1,서울특별시 서대문구 간호대로2길 5,37.5968872,126.9489406,이상미통밀빵,베이커리,
216,791094,2,5,광주광역시 동구 의재로 145-1,35.1324027,126.9433062,바보죽힐링카페,한식뷔페,
217,809070,2,1,서울특별시 종로구 사직로8길 42 지하1층 107호,37.573774,126.9731379,초록초록,샐러드,
218,817949,2,38,전라남도 목포시 평화로 38-7,34.794237,126.428707,담은하늘채,한식뷔페,
219,821974,2,1,서울특별시 강남구 개포로20길 24-10,37.4769879,127.0473759,베지그린,한식뷔페,
220,913544,2,1,서울특별시 구로구 디지털로31길 20 12층 1210호,37.4854994,126.8943518,더브레드블루 본사,베이커리,
221,914431,2,1,서울특별시 서초구 효령로 316-1 3층,37.4854265,127.0189763,천년식향,양식,
222,918356,2,4,대구광역시 수성구 동대구로77길 9 1층,35.8646609,128.6260454,스톡홀름샐러드 범어점,샐러드,
223,919119,2,31,경기도 파주시 산남로107번길 35-35,37.7022986,126.6974191,채식공간 녹두,채식,
224,923870,2,31,경기도 성남시 분당구 동판교로52번길 13-9 1층,37.3869271,127.115447,천연발효 비건 나정빵집,베이커리,
225,927643,2,31,경기도 성남시 수정구 위례서로 34,37.4681679,127.1372077,빵공작소,베이커리,
226,928390,2,1,서울특별시 관악구 신림로17길 63 1층,37.4679525,126.9363936,스톡홀름샐러드 신림점,샐러드,
227,939809,2,39,제주특별자치도 서귀포시 남원읍 일주동로 7036 러빙헛,33.2855486,126.7281645,러빙헛 서귀포점,샐러드뷔페,
228,942854,2,1,서울특별시 종로구 창경궁로 301,37.5874666,127.003014,샐러드박스 혜화점,샐러드,
229,948064,2,1,서울특별시 마포구 성미산로29길 30-3 1층 3호 지구제과,37.5654948,126.9221951,지구제과,베이커리,
230,959146,2,1,서울특별시 마포구 포은로 52,37.5520639,126.9069568,셰발레리,양식,
231,968511,2,36,경상남도 거창군 남하면 대야길 69-3 1층 카페나랑,35.6370709,127.964477,카페나랑,"카페,디저트",
232,968675,2,2,인천광역시 남동구 인주대로522번길 50,37.4482386,126.6952686,일용할양식,브런치,
233,982477,2,4,대구광역시 동구 동부로 149 신세계백화점 9층,35.8777043,128.6291671,캘리포니아피자키친 대구신세계점,피자,
234,992376,2,1,서울특별시 은평구 연서로17길 18-6,37.6132852,126.9162262,비건반점,중식,
235,994172,2,1,서울특별시 영등포구 여의대로 108 더현대서울 지하2층,37.5259168,126.9283122,잇샐러드 더현대서울점,샐러드,
236,996105,2,1,서울특별시 마포구 동교로19길 101 1층,37.5596505,126.9159646,해밀 비건베이커리,베이커리,
237,1000270,2,1,서울특별시 강남구 논현로175길 75 2층,37.4852809,127.0418104,마히나 비건 테이블,이탈리아음식,
238,1002558,2,1,서울특별시 용산구 한강대로23길 55 아이파크몰 7층,37.5297718,126.9647415,잇샐러드 용산아이파크몰점,샐러드,
239,12,3,1,서울 중구 을지로 30,37.5653,126.980979,롯데호텔 서울,"대한민국 서울의 중심에 위치하여 1,015실 규모를 자랑하는 한국 최고의 럭셔리 비즈니스 호텔인 롯데호텔서울은 고객 한 분 한 분의 높은 취향을 만족시킬 수 있도록 품격과 감각을 높였으며, ...",
240,13,3,1,서울 서초구 신반포로 176,37.5039018,127.0047481,JW 메리어트 호텔 서울,"JW 메리어트 서울은 다양한 쇼핑과 문화, 교통의 중심지인 강남 반포 센트럴시티에 위치하며 펜트하우스 2개와 스위트룸 32개를 포함한 총 379개의 객실로 이루어져 있습니다. 품격과 클래스를 ...",
241,14,3,1,서울 서울특별시 중구 삼일대로 302,37.5619759,126.9895644,이비스 스타일 앰배서더 서울 명동,서울 최고의 비지니스와 관광 쇼핑의 중심지인 명동에 위치하고 있는 이비스 스타일 앰배서더 서울 명동은 180개의 트렌디한 객실과 남산을 바라보며 도심 속의 여유를 즐길 수 있는 Roof Top Bar ...,
242,15,3,1,서울 강남구 봉은사로 524,37.5126864,127.0574219,인터컨티넨탈 서울 코엑스,"인터컨티넨탈 서울 코엑스는 고급스러운 5성급 호텔로 세계 무역 센터에 자리해 있으며 코엑스 단지에서 350m 떨어져 있습니다. 호텔은 5개의 레스토랑, 피트니스 센터 및 무료 주차장을 보유하...",
243,16,3,1,서울 중구 동호로 287,37.5604038,127.0024791,앰배서더 서울 풀만 호텔,"""Yours Always, 당신의 모든 순간을 특별한 순간으로"" 서울의 중심에 위치한 앰배서더 서울 풀만 호텔은 국내 첫 민영 호텔로써 1955년부터 현재까지 지켜온 유서 깊은(Storied) 헤리티지를 토대로 고...",
244,17,3,1,서울 강남구 테헤란로87길 46,37.51093,127.058103,오크우드 프리미어 코엑스 센터,오크우드 프리미어 코엑스 센터는 최고급 호텔이 주는 서비스와 더불어 내 집 같은 편안함과 여유로움으로 고객 여러분을 맞이합니다. 아시아의 매력적인 도시 서울의 비즈니스와 문화의 중...,
245,18,3,1,서울 광진구 워커힐로 177,37.5543699,127.1112096,비스타 워커힐 서울,"CREATE MOMENTS BEYOND YOUR EXPECTATION 편안하고 감각적인 인테리어와 자연 친화적 환경, 최고의 휴식을 위한 PA 서비스 등과 함께 그 어디에서도 경험할 수 없는 차별화된 가치를 만나보세요. SUSTAINABLE L...",
246,19,3,1,서울 용산구 소월로 322,37.538988,126.9958415,그랜드 하얏트 서울,"그랜드 하얏트 서울(은)는 서울 추천 숙소입니다. 가성비 우수, 편안하고 편리함까지 갖춘 이곳은 패밀리 한 분위기에 여러분같은 여행객들에게 꼭 맞는 부대시설들을 제공합니다. G명동 쇼핑...",
247,22,3,2,인천 중구 영종해안남로321번길 208,37.4404925,126.4574508,그랜드 하얏트 인천,"인천공항에서 가장 가까운 대규모 특급 호텔 그랜드 하얏트 인천은 인천국제공항 바로 옆에 위치해 있어 편리하게 비행기를 이용하기 위해 머물거나, 여행으로 인한 피곤을 풀고 또 다른 여행...",
248,23,3,2,인천 연수구 컨벤시아대로 165,37.389264,126.644207,오크우드 프리미어 인천,세계적으로 가장 신뢰 받는 서비스 레지던스 제공업체 오크우드 월드와이드의 일원인 오크우드 프리미어 인천은 동북아시아의 떠오르는 경제허브인 인천자유경제구역 송도 국제업무단지의 ...,
249,24,3,2,인천 연수구 컨벤시아대로 153,37.3902477,126.6455026,쉐라톤 그랜드 인천 호텔,"동북아 비즈니스의 허브도시, 인천경제 자유구역 송도의 중심부에 위치한 쉐라톤 그랜드 인천 호텔은 지정 학적 위치와 첨단 인프라로 비즈니스뿐만 아니라 다양한 문화와 휴양까지 즐길 수 ...",
250,25,3,2,인천 중구 영종해안남로 19-5,37.4251075,126.4279437,네스트호텔,"대한민국 최초의 디자인호텔스 멤버로 채택이 된 네스트호텔 인천은, 햇살의 동선까지 고려하여 외관부터 룸 안의 작은 것 하나하나까지 직접 제작하였습니다. 전 객실의 발코니에서 바다와 ...",
251,26,3,2,인천 연수구 능허대로179번길 56 인천송도 자우리호텔,37.4192885,126.6517267,자우리호텔 인천송도점,"인천에 자리한 자우리호텔 인천송도점에서는 차량으로 오는 투숙객을 위한 무료 전용 주차장뿐 아니라 공용 라운지, 무료 Wi-Fi도 제공합니다. 숙소는 녹색기후기금에서 4.3km, 송도 컨벤시아에...",
252,31,3,3,대전 유성구 테크노중앙로 161 (용산동),36.423907,127.398687,호텔스카이파크 대전1호점,"예약실 전화번호: 02-6900-9363 호텔 스카이파크 대전 1호점은 첨단 과학기술의 메카인 대덕 테크노밸리에 위치하여 있습니다. 대전 현대프리미엄 아울렛 안에 위치해 다양한 문화 생활, 쇼핑, 휴...",
253,32,3,3,대전 유성구 엑스포로 1 호텔 오노마 대전,36.3776874,127.384622,호텔오노마,"대전에 자리한 호텔오노마 대전 오토그래프컬렉션에서는 무료 자전거, 무료 전용 주차장, 피트니스 센터, 레스토랑 등을 이용하실 수 있습니다. 숙소는 Hanbat Arboretum에서 2.5km 거리에 있습니다....",
254,33,3,3,"대전 서구 월평북로 88-16 4,5층",36.3615417,127.377924,하니 모텔,"대전월평북로88~16(월평동250)번지( 대형주차장완비) 대전청사,무역센타, 유성온천,KBS방송국,선사유적지,시네마,버스터미널,먹거리가 즐비한곳",
255,41,3,4,대구 신천동326-1 동구,35.8753318,128.627652,대구 메리어트 호텔,"전 세계 134개국에서 30개 브랜드, 7,200여 개의 체인 호텔을 운영하고 있는 #메리어트 가 대구에 오픈합니다. 오감을 만족시킬 다양한 레스토랑과 모던한 분위기의 라운지, 사계절 여유롭게 즐길...",
256,42,3,4,대구 가창면 가창로 891,35.7882606,128.635199,호텔 드 포레,"나무들이 내뿜는 음이온과 피톤치드가 가득한 숲속, 편백내음, 바람소리, 새소리, 풀잎소리를 느끼며 휴식을 하게 되는 친환경 숙박시설 호텔드포레는 편백나무와 황토벽돌로 마감되어 머무...",
257,43,3,4,대구 수성구 동대구로 305,35.8577218,128.625123,대구 그랜드 호텔,"그랜드 호텔(은)는 대구 추천 숙소입니다. 가성비 우수, 편안하고 편리함까지 갖춘 이곳은 G대구청소년문화의집(3.5 km), 천주교 계산 주교좌 성당(3.6 km)(와)과 같은 인기 명소와 가깝기 때문에, ...",
258,44,3,4,대구 수성구 팔현길 212,35.8735101,128.660044,대구 인터불고 호텔,대구 유일의 특급호텔로서 대구국제공항으로부터 10분 거리에 위치해 있으며 수려한 자연경관과 최고의 시설을 갖추고 있습니다.,
259,45,3,4,대구 중구 국채보상로123길 23 노블스테이호텔,35.8717112,128.597275,호텔 노블스테이,대구 중구 동성로 중심에 위치한 편안하고 깨끗한 비지니스 호텔입니다.,
260,46,3,4,대구 중구 중앙대로81길 13 2월호텔 더시그니처 동성로점,35.8695893,128.592837,2월호텔 더시그니처 동성로점,2월호텔은 핫플레이스 동성로의 트랜디함과 스타일리시함을 가까이서 누릴 수 있는 럭셔리 호텔입니다.글램핑에서부터 럭셔리 풀파티까지 감각적인 트랜드세터들의 유쾌한 놀이터로 도심 한...,
261,47,3,4,대구 수성구 알파시티1로32길 28-17,35.8365364,128.683399,ACT 관광 호텔,모던함과 자연이 함께 어우러진 ACT 호텔은 현대적인 공간에서 자연 속에 빠진듯한 편안함으로 고객님들의 여정을 더욱 값지게 만들 수 있는 호텔입니다. 대구 알파시티 경제자유구역에 위치...,
262,48,3,4,대구 중구 서성로13길 57 (인교동) 한옥1942,35.8718563,128.584269,한옥1942,"한옥1942는 가온방,다온방,라온방으로 구성되어 있으며,1942년에 지어진 한옥을 원형을 살려 복원하였습니다.",
263,49,3,4,대구 중구 종로 23-23,35.8680698,128.590537,봄고로 게스트하우스,"*대구 교통의 요지 반월당 현대 백화점 뒤 약령시에 위치, 동성로를 비롯 대구 도보여행의 베이스캠프 문학관 혹은 고양이 갤러리 같은 감성 돋는 편안한 숙소, 대구 봄고로 게스트하우스 입...",
264,51,3,5,광주 서구 상무누리로 55,35.1475612,126.838167,홀리데이인 광주호텔,"광주 고속터미널 역에서 택시로 10분, 광주송정 KTX 역에서 택시로 15분, 지하철 4정거장 떨어져 있는 홀리데이 인 광주 호텔®은 광주 및 전라도 여행을 위한 최적의 장소에 위치하고 있습니다. ...",
265,52,3,5,광주 서구 상무중앙로38번길 5-8,35.1508748,126.84941,브라운도트 호텔 상무점,피렌체 관광 호텔에서 브라운도트 호텔로 새롭게 리뉴얼 되었습니다.,
266,53,3,5,광주 북구 대자로106번길 10-6 에이치원호텔,35.1727168,126.883794,에이치원호텔,"호텔 에이치원은 내 집과 같은 안락함을 모토로 아늑하고 실용적인 공간과 깔끔하고 편리한 시설, 문화적인 경험을 제공하는 비즈니스 호텔입니다. 여행자의 필요와 취향을 고려한 다양한 타...",
267,54,3,5,광주 서구 상무번영로 47,35.1540877,126.852674,두바이 호텔,"두바이 호텔에서 Genius 할인을 받으실 수 있습니다. 로그인하시고 저렴한 요금으로 예약하세요! 두바이 호텔은 광주시청에서 남쪽으로 700m, 5.18 기념공원에서 150m 거리에 위치한 숙박시설입니...",
268,55,3,5,광주 서구 상무자유로 149,35.1520029,126.850549,라마다플라자 광주호텔,"라마다플라자 광주호텔은 전 세계적으로 7,000여개의 프랜차이즈 호텔과 580,000개의 객실을 소유하고 있는 윈덤호텔 그룹에 속해 있는 라마다 인터내셔널의 광주 최초 특1급 호텔로 2008년 10월 ...",
269,56,3,5,광주 광산구 사암로171번길 90-20 호텔 써밋,35.1606582,126.802229,호텔 써밋,"호텔 써밋은 내 집과 같은 안락함을 모토로 아늑하고 실용적인 공간과 깔끔하고 편리한 시설, 문화적인 경험을 제공하는 비즈니스 호텔입니다. 공항, KTX, 터미널 근처에 위치해 있으며 여행객...",
270,57,3,5,광주 북구 대자로 104 비엔날레호텔,35.1729602,126.883816,비엔날레 호텔,"광주 비엔날레 호텔은 청결하고, 편안하게 쉴 수 있는 공간을 제공하도록 최선을 다하겠습니다. 네이버 결제가 가장 저렴합니다. 감사합니다 : )",
271,58,3,5,광주 서구 상무중앙로38번길 5-6,35.1506765,126.84941,벤처비즈니스호텔,"광주 최초 전기 자동차 충전소 호텔 회의실 사용가능, 빔프로젝트 이용가능 벤처 비즈니스 호텔에 방문해 주신 고객님께 감사드립니다. 2018년 4월 신규 오픈한 벤처 비즈니스호텔은 상무지구...",
272,59,3,5,광주 광산구 내상로51번길 27 다솜채,35.13891,126.797662,다솜채 한옥스테이,"한국관광공사 한국관광품질인증 다솜채는 한국 관광공사가 검증한 한국관광품질인증 (korea Quality)이 인정한 관광시설과서비스에 소방,청결,서비스,부대시설등 대해 신뢰 할 수 있는 품질 수준...",
273,61,3,6,부산 해운대구 동백로 67 Haeundae,35.1560261,129.153971,웨스틴 조선 부산,"웨스틴 조선 부산에 오신 것을 환영합니다! 여러분의 ""제 2의 집""인 부산 호텔에서는 여러분의 시간이 집처럼 편안하도록 다양한 부대시설을 제공합니다. G해운대 영화의거리(0.5 km), 청사포(0.5...",
274,62,3,6,부산 부산진구 중앙대로777,35.1618541,129.061894,이비스 앰배서더 부산 시티센터,우리 모두 지친 육신을 잠시 쉬어갈 곳이 필요합니다. 부산(을)를 방문하는 여행객들에게 휴식과 회복에 이비스 앰배서더 부산 시티센터보다 더 좋은 곳은 없습니다. 패밀리 한 분위기와 맛집 ...,
275,63,3,6,부산 해운대구 해운대해변로209번길 8,35.1590985,129.154502,이비스 버젯 앰배서더 부산 해운대,"이비스 버젯 앰배서더 부산 해운대 호텔은 전세계 3,600여개 호텔을 거느린 호텔 체인 아코르 그룹 산하의 브랜드로서 국내 유일의 호텔 전문 기업인 앰배서더 호텔 그룹에서 운영하는 한국 최...",
276,64,3,6,부산 해운대구 달맞이길 30,35.1607444,129.169831,시그니엘 부산,시그니엘 부산은 해운대의 랜드마크 '엘시티(LCT)'타워에 위치한 260실 규모의 럭셔리 호텔입니다. '시그니엘 서울'에 이은 시그니엘의 두번째 호텔로 부산 해운대의 환상적인 오션뷰와 광안대...,
277,65,3,6,부산 해운대구 달맞이길 30 랜드마크동 7008호,35.1607444,129.169831,그랜드 엘시티 레지던스,세계적인 3대 해변휴양도시 부산 해운대의 바다와 하늘을 한눈에 품은 LCT. 101층 랜드마크 엘시티(LCT) 타워에서 환상적인 오션뷰와 광안대교를 감상할 수 있는 서비스드 레지던스입니다. 가족 ...,
278,66,3,6,부산 해운대구 해운대해변로 296,35.1599547,129.164104,파라다이스 호텔 부산,총 객실 532실로 해운대 최대 규모를 자랑하며 해운대 바다가 보이는 오션스파 씨메르 & 풀 등 비즈니스와 리조트의 복합적 기능을 갖춘 특1급 호텔로 해변 측 객실에는 해운대 바다를 한 눈에 ...,
279,67,3,6,부산 중구 자갈치로 21,35.0967082,129.026668,남포 오션투헤븐 호텔&스파,"기본을 지키는 호텔, 남포 오션투헤븐 호텔&스파에서 머무세요. 부산 자갈치시장역 4번 출구 도보 1분 거리에 있습니다. 전국 최대 어시장 자갈치 시장에 위치한 저희 숙소는 부산의 구도심을 ...",
280,68,3,6,부산 중구 구덕로 53,35.0979423,129.029933,스탠포드 호텔 부산,"스탠포드인 부산에 오신 것을 환영합니다! 여러분의 ""제 2의 집""인 부산 호텔에서는 여러분의 시간이 집처럼 편안하도록 다양한 부대시설을 제공합니다. 부산타워(0.4 km), 영도대교(0.6 km)(와)과...",
281,69,3,6,부산 북구 낙동대로 1684 호텔티티 구포,35.2049621,128.995909,호텔 티티 구포,"23.05 사우나 오픈! *CHECK IN 15:00 / CHECK OUT 12:00 북구 구포동에 위치한 호텔티티 구포는 1호점인 호텔티티 서면점에 이어 두 번째로 오픈한 프리미엄 비즈니스호텔입니다. 구포 지하철역, 기차역,...",
282,72,3,7,울산 남구 삼산로 200,35.5374851,129.3292576,신라스테이 울산,"울산 버스터미널과 롯데 백화점에서 약 1km 거리에 있는 신라 스테이 울산은 구내 카페, 호텔 바 및 24시간 프런트 데스크를 보유하고 있습니다. 호텔 전 구역에서는 무료 Wi-Fi 이용이 가능합니...",
283,73,3,7,울산 남구 삼산로 282,35.5384496,129.3383353,롯데호텔 울산,"롯데호텔울산은 울산 남구에 위치해 있으며, 서울에서 항공편으로 50분이 소요됩니다. 호텔은 객실 내 평면 TV, 실내 수영장, 레스토랑 2곳을 갖추고 있습니다. 에어컨이 완비된 객실에는 업무...",
284,74,3,7,울산 북구 강동산하2로 7,35.6259898,129.4414551,머큐어 앰배서더 울산,"울산의 강동해변 앞에 위치한 머큐어 앰배서더 울산은 바다 전망을 갖춘 친환경 객실을 보유하고 있습니다. 이 호텔은 131개의 객실을 지니고 있으며, 올데이 다이닝 레스토랑을 운영합니다. ...",
285,75,3,7,울산 남구 삼산로 204,35.5375345,129.3296123,롯데시티 호텔 울산,울산에 자리 잡고 있는 롯데 시티 호텔은 현대적인 인테리어를 갖춘 세련된 객실을 보유하고 있습니다. 5층에 있는 피트니스 센터를 무료로 이용할 수 있습니다. 구내 레스토랑은 뷔페식 식사...,
286,76,3,7,울산 남구 중앙로213번길 8 (신정동),35.539864,129.31107,울산 애쉬튼 호텔,"울산에 자리한 울산 애쉬튼 호텔에서는 레스토랑, 무료 전용 주차장, 바 등을 이용하실 수 있습니다. 숙소는 석굴암에서 37km 거리에 있습니다. 해당 3성급 호텔에는 비즈니스 센터, 수하물 보관...",
287,82,3,8,세종 다솜3로 6,36.4958,127.2667,코트야드 바이 메리어트 세종,"코트야드 세종은 대한민국 세종시 최초의 메리어트 인터내셔널 호텔로, 서울에서 단 50분 거리에 위치해 편리한 접근성을 자랑합니다. 충청권 중심에 자리한 호텔에서 투숙하세요. 세종첨단일...",
288,110,3,1,서울 강남구 봉은사로 130,37.5055121,127.0289196,노보텔 앰배서더 서울 강남 호텔,"강남의 패셔너블한 쇼핑, 레스토랑 지구 중심에 위치하고 있으며, COEX와 대중교통 허브와 가깝습니다. 스위트와 새로 단장한 슈페리어룸과 프리미어 이그제큐티브룸 플로어를 비롯한 332개의 ...",
289,111,3,1,서울 중구 소공로 106 Jung-Gu,37.564378,126.980058,웨스틴 조선 서울,"서울 웨스틴조선호텔은 비즈니스와 쇼핑의 최적지인 서울의 심장부에 위치한 특 1급 호텔로, 각국의 대사관, 은행, 정부부처, 고궁과 백화점과 명동에 인접한 곳에 자리하고 있으며, 인천 국제...",
290,112,3,1,서울 강남구 테헤란로 521,37.5088823,127.0608141,그랜드 인터컨티넨탈 서울 파르나스,가장 진보된 서울을 만날 수 있는 테헤란로의 중심에 위치한 인터컨티넨탈 그랜드 서울 파르나스는 30년의 호텔 경영 노하우와 서비스 경험을 기반으로 True Hospitality를 선보입니다. 2020년 외관 ...,
291,113,3,1,서울 중구 남대문로 78,37.5643834,126.9829397,이비스 앰배서더 서울 명동,"이비스 앰배서더 서울 명동(ibis Ambassador Seoul Myeongdong)은 서울의 최신 유행을 선도하는 쇼핑 구역 중심에 위치해 있으며, 주요 백화점, 레스토랑, 카페 및 나이트클럽이 가까운 거리에 있습니다....",
292,114,3,1,서울 영등포구 국제금융로 10,37.5253357,126.9265542,콘래드 서울,아름다운 한강과 도시의 스카이라인이 눈 앞에 펼쳐지는 콘래드 서울에서 꿈꾸던 하루를 경험해보세요. 콘래드 서울은 당신에게 럭셔리 그 이상을 선사할 것입니다. 콘래드 서울은 여의도 비...,
293,115,3,1,서울 강남구 삼성로 431,37.5050612,127.0570773,이비스 스타일 앰배서더 서울 강남,"서울에서 여러분이 원하는 트렌디 호텔(을)를 찾았습니다. 여러분같은 여행자들에게 딱 좋은 이비스 스타일 앰배서더 서울 강남에 오신 것을 환영합니다. 객실은 평면 TV, 냉장고, 에어컨(을)...",
294,116,3,1,서울 강남구 봉은사로 155,37.5067961,127.0315248,호텔 카푸치노,"여행에 가치를 더하는 어번 라이프 스타일 호텔, 호텔 카푸치노 많은것이 새롭지만 모든것이 매력적인 호텔 카푸치노에서 특별한 시간을 선사합니다.",
295,117,3,1,서울 중구 소공로 119,37.5646452,126.9781534,더 플라자,"서울에서 여러분이 원하는 로맨틱 호텔(을)를 찾았습니다. 여러분같은 여행자들에게 딱 좋은 더 플라자에 오신 것을 환영합니다. 청계천(0.8 km), 창덕궁(2.0 km)(와)과 같은 명소들로 인해 더 플...",
296,118,3,1,서울 종로구 청계천로 279,37.5704076,127.008782,JW 메리어트 동대문 스퀘어 서울,"JW 메리어트 동대문 스퀘어 서울(JW Marriott Dongdaemun Square Seoul)은 서울의 랜드마크인 한국 보물 1호 흥인지문을 바라보며, 서울의 쇼핑 중심인 동대문에 위치한 럭셔리 부티크 호텔입니다. 스위트...",
297,119,3,1,서울 종로구 삼일대로30길 31,37.5746896,126.9894713,이비스 앰배서더 서울 인사동,"이비스 앰배서더 서울 인사동 호텔은 외국인 관광객이 선호하는 관광 명소인 인사동에 위치해 있으며, 국내외 레저 고객과 비즈니스 고객에게 지역 최고의 숙박시설을 제공합니다. 현대와 전...",
298,120,3,1,서울 중구 퇴계로 334,37.564151,127.008726,이비스 버젯 앰배서더 서울 동대문,"합리적인 가격의 고객 중심 서비스를 제공하는 이비스버젯 앰배서더 서울 동대문 호텔은 편리한 샤워 부스, 개별 에어컨, 업무를 위한 데스크, 평면 TV, 미니 냉장고 등이 설비된 195개의 객실과...",
299,121,3,1,서울 영등포구 경인로 870,37.5169644,126.909187,페어필드 바이 메리어트 서울,"서울에 위치한 페어필드 바이 메리어트 서울은 피트니스 센터를 운영하고 있습니다. 영등포구에 자리한 이 호텔은 매력적인 입지를 자랑하며, 타임스퀘어에서 1.2km, 신세계 백화점에서 880m 거...",
300,122,3,1,서울 용산구 한강대로 366,37.5511247,126.9729133,"포포인츠 바이 쉐라톤 조선, 서울역","지하도로 서울역과 바로 연결되어 있는 포포인츠 바이 쉐라톤 서울 남산은 레스토랑과 피트니스 센터를 갖추고 있습니다. 호텔은 전역에 무료 Wi-Fi를 제공하며, 내부에 무료 주차장도 마련하...",
301,123,3,1,서울 중구 삼일대로 10길 36,37.56558996,126.9894543,"포포인츠 바이 쉐라톤 조선, 서울 명동","서울에 자리한 포포인츠 바이 쉐라톤 조선, 서울 명동에서는 피트니스 센터, 전용 주차장, 레스토랑, 바 등을 이용하실 수 있습니다. 숙소는 명동성당에서 6분 거리에 있습니다. 해당 4성급 호...",
302,124,3,1,서울 마포구 양화로 188,37.55773211,126.927088,홀리데이 인 익스프레스 서울 홍대,"서울에 위치한 홀리데이 인 익스프레스 서울 홍대는 피트니스 센터, 무료 Wi-Fi 등 다양한 편의 시설을 갖추고 있습니다. 모든 객실에는 평면 위성 TV, 전용 욕실이 구비되어 있습니다. 구내 레스...",
303,125,3,1,"서울 구로구 디지털로 32, 72",37.4831795,126.8988477,포포인츠 바이 쉐라톤 서울 구로,"구로 디지털밸리의 중심부에 위치한 포포인츠 바이 쉐라톤 서울 구로는 지하철 2호선 구로디지털단지역과 7호선 대림역에서 도보로 약 5~10분 거리에 있어 홍대입구, 신도림, 노량진 수산시장, ...",
304,126,3,1,서울 영등포구 여의대로 108,37.5252396,126.9290609,페어몬트 앰배서더 서울,"서울에 자리한 페어몬트 앰배서더 서울에서는 피트니스 센터, 무료 전용 주차장, 레스토랑, 바 등을 이용하실 수 있습니다. 숙소는 영등포역에서 3km 거리에 있습니다. 해당 5성급 호텔에는 24시...",
305,127,3,1,서울 종로구 돈화문로11나길 63,37.5752091,126.9894139,더 가든 호텔,"서울에 자리한 더 가든 호텔에서는 3성급 객실과 공용 라운지, 테라스 등의 시설을 이용하실 수 있습니다. 이 3성급 호텔에서는 에어컨, 무료 Wi-Fi가 완비된 객실과 정원 등을 제공합니다. 각 객...",
306,128,3,1,서울 강남구 도산대로 1길 83,37.5221247,127.0194875,라까사 호텔 서울,"호텔 라까사 가로수길은 서울의 디자이너 부티크 숙박 시설로, 지하철 3호선 신사역에서 도보로 단 10분 거리에 있습니다. 집처럼 아늑한 분위기의 이 호텔은 2개의 멋진 레스토랑, 현대적인 피...",
307,129,3,1,서울 서초구 강남대로 253,37.485933,127.032766,힐튼 가든 인 서울 강남,"서울에 자리한 힐튼 가든 인 서울 강남에서 머물러보세요. 숙소는 계절에 따라 운영되는 야외 수영장, 피트니스 센터, 레스토랑, 바 등을 갖추고 있습니다. 해당 4성급 호텔에는 24시간 프런트 ...",
308,130,3,1,서울 강남구 테헤란로 231,37.5027967,127.0414103,"조선 팰리스 서울 강남, 럭셔리 컬렉션 호텔","서울에 자리한 조선 팰리스 서울 강남, 럭셔리 컬렉션 호텔에서는 5성급 객실을 제공합니다. 숙소는 강남역에서 19분 거리, 코엑스에서 2.7km 거리에 있습니다. 이 5성급 호텔에서는 에어컨, 무료...",
309,131,3,1,서울 송파구 오금로11길 21-9,37.5153914,127.109322,딜라이트 호텔 잠실,"서울에 자리한 딜라이트 호텔 잠실에서는 무료 자전거, 무료 전용 주차장, 공용 라운지, 테라스 등을 이용하실 수 있습니다. 숙소는 문정동 로데오 거리에서 3.8km 거리에 있습니다. 숙소에는 미...",
310,132,3,1,서울 종로구 청계천로 63-3,37.5689365,126.9847946,MG 호텔,"서울에 자리한 MG 호텔에서는 컨시어지 서비스, 항알레르기 객실, 레스토랑, 무료 Wi-Fi, 바 등을 제공합니다. 숙소는 조계사에서 1km 내 거리에 있습니다. 해당 2성급 호텔에는 룸서비스, 24시간 ...",
311,133,3,1,서울 강서구 마곡동로 4길 23,37.55966994,126.8362056,더퍼스트 스테이 호텔,"서울에 위치한 호텔 루체브릿지는 구내 레스토랑을 갖추고 있습니다. 호텔의 모든 객실에서 무료 Wi-Fi를 이용하실 수 있습니다. 모든 객실은 에어컨, 주전자, 평면 위성 TV를 완비하고 있습니...",
312,134,3,1,서울 송파구 올림픽로10길 5,37.5111111,127.0811463,파로스호텔,"지하철 2호선 잠실새내역에서 불과 400m 떨어진 편리한 위치에 자리한 파로스호텔은 구내 레스토랑을 보유하고 있으며, 전 구역에서 무료 Wi-Fi를 제공합니다. 파로스호텔의 각 객실은 평면 TV, ...",
313,135,3,1,서울 강남구 봉은사로 113,37.5052828,127.0258988,호텔 더 디자이너스 LYJ 강남 프리미어,"호텔 더 디자이너스 리즈 강남 프리미어는 신논현역에서 도보로 2분 거리에 있으며, 코엑스 컨벤션 센터에서 3km 떨어져 있습니다. 호텔은 무료 Wi-Fi를 갖춘 현대적인 객실을 제공하며, 레스토...",
314,136,3,1,"서울 종로구 종로17길 46 2층, 3층",37.572189,126.9883692,Daljee Guesthouse,"달지 게스트하우스는 서울에 위치한 숙소입니다. 숙소에는 테라스와 수하물 보관소가 있습니다. 객실은 무료 Wi-Fi와 에어컨, 평면 TV를 갖추고 있습니다. 전용 욕실에는 헤어드라이어와 무료 ...",
315,312,3,31,경기 양평군 강하면 강남로 316,37.500231,127.421815,블룸비스타호텔앤컨퍼런스,물의 고장 양평에 자리한 블룸비스타는 천혜의 자연 환경 속에서 최상의 휴식 공간과 첨단 교육 시설을 만나실 수 있는 복합 공간입니다. 남한강과 전원주택단지의 풍광이 주는 여유로움을 만...,
316,313,3,31,경기 수원시 팔달구 덕영대로 902,37.268436,126.999026,노보텔 앰버서더 수원,"세련된 감각의 노보텔 앰배서더 수원(Novotel Ambassador Suwon) 호텔은 비즈니스와 레저 중심지에 위치해 있습니다. 한국에서 만날 수 있는 이 호텔은 넓은 회의실과 웨딩홀, 비즈니스 여행을 비롯한...",
317,314,3,31,경기 수원시 팔달구 권광로 132,37.259175,127.031272,이비스 앰버서더 수원,"이비스 앰배서더 수원 호텔(Ibis Ambassador Suwon hotel)은 수원의 중심지인 인계동에 위치해 있습니다. 편안한 숙박을 제공해드리기 위해 215개의 객실과 무료 고속 Wi-Fi, 인터내셔널 뷔페 레스토랑, ...",
318,315,3,31,경기 여주시 강변유원지길 45,37.293206,127.660889,썬밸리호텔,문화의 도시 여주에 레저와 식문화를 선도하는 남한강 썬밸리호텔. 친환경 대자연속에 남한강과 신륵사의 아름다운 조망권 모던하면서도 예술적 감성이 넘치는 공간으로 준비하였습니다. 더...,
319,316,3,31,경기 광명시 일직로12번길 22 라까사타워 7층,37.42112,126.88238,라까사호텔 광명,"라까사호텔 광명은 건조한 삶 속에서 일상의 의미를 되새겨 줄 특별한 호텔입니다. 집처럼 아늑한 객실 디자인, 자연과 문화가 공존하는 다양한 라이프스타일 콘텐츠, 다이내믹한 광명의 로컬...",
320,317,3,31,경기 이천시 마장면 서이천로 449-79,37.261674,127.394319,에덴 파라다이스호텔,몸과 마음이 회복되는 진정한 힐링 플레이스 사랑하는 사람들과 추억을 쌓으며 편안한 쉼과 사색을 통해 더 나은 내일을 만들어 가는 곳. 서비스의 시작과 끝은 모두 고객의 ‘진정한 쉼’에 ...,
321,318,3,31,경기 화성시 정남면 세자로 286,37.187001,126.984144,라비돌리조트,"서울에서 30분 거리에 위치한 자연 친화적인 유럽풍 감성의 라비돌 호텔 앤 리조트입니다. 다양한 부대시설과 골프장을 겸비한 종합휴양시설로 멀리서도 한눈에 들어오는 지상17층, 지하1층 규...",
322,319,3,31,경기 성남시 분당구 황새울로311번길 36,37.386507,127.121028,서머셋 센트럴 분당,"서머셋 센트럴 분당의 인근에는 분당중앙공원, 황새울공원, 탄천강, 상록수광장, 성남아트센터, 남한산성, 성남 야외콘서트홀, 에버랜드 등이 위치해 있습니다. 아울러, 정보기술, 생명공학, ...",
323,322,3,32,강원 강릉시 해안로406번길 2 씨마크호텔,37.797952,128.915375,씨마크호텔,"강릉 경포의 아름다운 동해바다와 마주하고 있는 씨마크 호텔은 세계적 건축가 리처드 마이어가 설계하고, 최고의 시설과 서비스를 갖춘 국내 최초의 럭스티지(Luxury+Prestige) 호텔 입니다. 씨마...",
324,323,3,32,강원 속초시 대포항길 186,38.180478,128.612187,롯데리조트 속초,롯데리조트속초는 여행과 휴식을 꿈꾸는 누구에게나 특별한 경험을 선사하는 리조트로 3면이 바다로 둘러싸인 천혜의 위치해 모든 객실에서 푸른 바다를 보실 수 있습니다. 푸르른 산과 에메...,
325,324,3,32,강원 강릉시 해안로 476,37.80436,128.907724,스카이베이호텔 경포,"스카이베이 경포 호텔은 한국의 관동팔경의 하나로 최고의 휴양지인 강릉 경포대 앞에 위치해 있습니다. 5성급 호텔로서 객실 538개와 연회장, 스카이 라운지 레스토랑과 바 그리고 고급 스파 ...",
326,325,3,32,강원 영월군 영월읍 동강로 716 영월에코빌리지,37.228562,128.510493,에코빌리지,"에코빌리지는 휴식, 사람, 햇살, 친환경 체험이 어울려 있는 공간으로 탄소배출을 줄이는 체류형 체험을 통해 휴식에 새로운 의미를 부여합니다. 탄소배출 없는 ‘깨끗한 스물 네 시간’의 경...",
327,326,3,32,강원 정선군 사북읍 하이원길 265,37.213488,128.821286,하이원 그랜드호텔 컨벤션타워,"품격과 기능을 중시한 컨벤션 전문호텔. 대규모 국제회의, 공연, 전시회, 이벤트 전문 공간. 신개념 기능성 호텔로서의 역할을 다하기 위해 호텔 관련 모든 정보의 시스템 구축과 ONE STOP SERVICE ...",
328,327,3,32,강원 정선군 사북읍 하이원길 265,37.212331,128.821906,하이원 그랜드호텔 메인타워,"하이원 그랜드호텔(메인타워) 은 최고의 서비스를 부담 없는 가격으로 즐기실 수 있는 스탠다드룸에서 부터 최고라 자부하는 프레지덴셜 룸까지 다양한 스위트 룸을 갖추고 있으며, 고객 분들...",
329,328,3,32,강원 영월군 영월읍 사지막길 160,37.2179,128.5188,탑스텐 리조트 동강 시스타,굽이쳐 흐르는 동강의 품 안에서 펼쳐지는 유럽피안 리조트 - 아름다운 자연을 담은 객실에서 편안하고 낭만적인 휴식을 누리십시오. 최고의 자연환경을 자랑하는 동강에서도 가장 아름다운 ...,
330,329,3,32,강원 태백시 태백산로 4839,37.1319,128.9691,라마다 태백 호텔,"태백산 아래 첫번째 호텔, 아름다운 자연 속 쉼표가 되어드리겠습니다. 젊은 감각, 새로운 비전, 감동적인 서비스로 여러분들께 한발 더 다가가겠습니다.",
331,332,3,33,충북 충주시 수안보면 조산공원길 99,36.8456999,127.993922,더 조선호텔 수안보,,
332,352,3,35,경북 경주시 보문로 484-7,35.839926,129.285853,힐튼호텔 경주,아름다운 보문호수에 자리잡은 힐튼경주는 모던하고 안락한 인테리어로 편안한 휴식을 선사합니다. 시대에 발맞춰 세계 최고의 호텔로 거듭나기 위해 변화와 혁신을 추구하는 힐튼경주가 되...,
333,357,3,35,경북 경주시 포석로1068번길 25,35.8359997,129.212266,나무애,"우리 숙소는 신라천년의 숨결을 느낄 수 있는 대릉원 남쪽 돌담(황리단길 안)에 접하고 있는 100년된 한옥과 양옥이 어우러진 힐링공간입니다. 우리 숙소에는 전통공예 및 도자기전시장, 문화...",
334,363,3,36,경남 남해군 남면 남서대로1179번길 40-109,34.776721,127.851933,아난티 남해,"천혜의 자연환경을 갖춘 아난티 남해는 해양성 기후로 연중 온화한 기온을 유지하는 남해 섬에 있습니다. 월드 트래블 어워드 12회 연속 수상에 빛나는 PGA 스타일의 18홀 골프 코스, 세계적인 ...",
335,364,3,36,경남 창원시 의창구 창원대로363번길 22-5 크라운호텔,35.237769,128.640091,크라운호텔 창원,"저희 호텔은 창원시청과 창원역 차량 10분, 창원 중앙역 차량 15분거리로 창원을 방문하시는분들에게 최고의 접근성을 자랑합니다. 또한 더블룸, 트윈룸, 스위트룸, 온돌룸 등 다양한 형태의 객...",
336,365,3,36,경남 남해군 미조면 미송로303번안길 3,34.705483,128.024439,설리리조트,[신축펜션] [개별테라스] [개별바베큐] [ 바다전망][프리미엄 침구] [ 친환경 가구] [야외 수영장] 1. 예약된 인원 외 다른사람의 방문은 불가합니다. 2. 입금대기인 경우 1시간 이내에 입금 부탁드...,
337,366,3,36,경남 통영시 진남아랫길 23-15 하고게스트하우스,34.831996,128.407855,하고게스트하우스,"HAGO는 '하고 싶은 대로'하고와 '행복(Happy)하고 좋은(Good) 하루여행(One)'이라는 의미에요. HAGO의 장점이라면 깨끗하고 조용하고 편안한 숙소, 여행이야기가 함께하는 카페테리아, 커피가 맛있어...",
338,374,3,37,전북 고창군 상하면 상하농원길 6-36,35.445433,126.452692,상하농원 파머스 빌리지,우리 아이들에게 농촌의 가치와 먹거리에 대한 소중함을 알려주고자 했던 저희는 농원을 찾아주시는 많은 손님들이 편히 쉬어가실 수 있도록 자연에서 얻은 나무와 돌로 농원의 큰 헛간을 개...,
339,375,3,37,전북 전주시 완산구 최명희길 24-1,35.8160474,127.15,아름다운집 한옥게스트하우스,전주한옥마을 숙박 아름다운집은 한옥체험 시설로 전통한옥을 그대로 재현하여 보존되고 있습니다. 전주한옥마을 중심에 위치하고 있어 관광명소들이 가까이에 있어 편리합니다. 조식서비스...,
340,376,3,37,전북 전주시 완산구 기린대로 78-3 정가한옥,35.8164651,127.1551871,정가한옥,"한국관광공사로 부터 한옥체험업 스텐더드 품질인증을 받았고, 전주시에서 인증하는 우수 한옥체험 숙박시설입니다. 국산 편백과 황토를 사용하여 머무르는 내내 상쾌함과 편안함을 느낄 수 ...",
341,382,3,38,전남 해남군 화원면 시아로 552,34.667808,126.257797,오시아노 리조트호텔,오픈 예정,
342,383,3,38,전남 여수시 오동도로 61-13 여수 베네치아 호텔 앤 리조트,34.745773,127.75173,여수 베네치아 호텔&리조트,"여수 관광의 핵심에 위치. 여수 엑스포 공원 내 아쿠아플라넷, 해상 케이블카, 오동도, KTX 여수 엑스포역에 인접해 있으며 풀 스위트, 4계절 온수풀, 건식 사우나와 투숙객 전용으로 이용할 수 ...",
343,392,3,39,제주 서귀포시 중문관광로72번길 75,33.247458,126.408061,제주신라호텔,"휴양지에서의 품격 있는 리조트 호텔 문화를 정착하기 위해 연중 문화 및 엔터테인먼트 프로그램을 고객들에게 제공하고 있는 제주신라호텔은 레저 전문가 서비스 G.A.O.(Guest Activity Organizer), ...",
344,393,3,39,제주 서귀포시 중문관광로72번길 35 롯데호텔 제주,33.248602,126.410549,롯데호텔 제주,푸른 제주 바다와 하늘이 맞닿은 곳에 위치한 롯데호텔 제주는 천국 같은 휴식과 여행의 즐거움을 동시에 누릴 수 있는 대한민국 대표 호텔입니다. 제주의 바다를 닮은 사계절 온수풀 ‘해온(...,
345,394,3,39,제주 서귀포시 1100로 453-95,33.286092,126.444134,WE호텔 제주,"프리미엄 헬스리조트 WE호텔 제주는 5성 <WE호텔>과 한라의료재단의 <WE병원>을 융합한 국내 최초의 원스톱 헬스케어 서비스를 제공하며, 모든 투숙객에게 WE, Healing with you 웰니스 프로그램을 무...",
346,395,3,39,제주 서귀포시 중문관광로72번길 60 그랜드조선제주,33.252466,126.408151,그랜드 조선 제주,에메랄드 빛 바다와 천혜의 경관을 그대로 마주하고 있는 그랜드 조선 제주는 제주 대표 관광지가 모여있는 중문관광단지에 위치하여 풍부한 주변 볼거리를 제공합니다. 제주의 바다를 닮은 ...,
347,396,3,39,제주 제주시 노연로 80,33.485126,126.488661,메종 글래드 제주,"제주국제공항과 10분 거리에 위치한 메종글래드 제주는 제주 도민의 삶 속 깊이 자리잡은 랜드마크이자, 제주 고유의 매력을 경험할 수 있는 호텔입니다. 40여 년 역사를 존중하는 헤리티지와 ...",
348,397,3,39,제주 제주시 탑동로 66,33.518869,126.517912,라마다프라자 제주호텔,제주도 제주시 탑동 해변가에 위치한 라마다프라자 제주 호텔은 호화 유람선을 모티브로 한 독특한 설계와 바다와 바로 인접해 있는 국내 최초의 해변호텔 로서 제주항과 제주국제공항에서 ...,
349,398,3,39,제주 제주시 연삼로 14,33.493508,126.493808,벤티모 호텔 앤 레지던스 제주,"벤티모 호텔 앤 레지던스 제주, VENTIMO HOTEL & RESIDENCE JEJU 입니다. 벤티모는 친환경 스마트 호텔로 예약, 체크인/아웃 등의 서비스를 자동객실관리시스템을 통해 보다 편리하게 이용이 가능합니...",
350,399,3,39,제주 서귀포시 안덕면 신화역사로304번길 38,33.306469,126.317337,제주신화월드 호텔앤리조트,모든 여행을 만족시키는 호텔 리조트 서비스를 경험하세요! 제주신화월드 호텔 앤 리조트에는 각각 콘셉트가 다른 4개의 리조트가 있습니다. 대규모 컨벤션 시설에서 가장 가까워 MICE에 최적...,
351,410,3,4,대구 중구 동성로1길 15,35.8670076,128.594535,토요코인호텔 동성로점,,
352,411,3,4,대구 중구 남산로2길 11-11,35.8573176,128.583149,애가 한옥 게스트하우스,"대구에 자리한 애가한옥 게스트하우스에서는 쉼터, 정원 등의 시설을 이용하실 수 있습니다. 숙소로부터 2km 내에는 이월드, 두류공원, 중앙로, 반월당, 동성로, 서문시장, 청라언덕, 약령시가 ...",
353,412,3,4,대구 달서구 이곡서로 86 유니드호텔,35.8545586,128.506108,유니드 호텔,"2020년 리모델링을 거쳐 새롭게 거듭난 비즈니스 호텔 입니다. 저희 유니드 호텔에서는 고객님의 니즈에 맞춰 다양한 종류의 객실을 운영 중입니다. 스탠다드, 디럭스, 디럭스 트윈, 스위트룸이...",
354,413,3,4,대구 중구 국채보상로101길 20-2 한옥1957,35.8715809,128.584651,한옥1957,"한옥1957은 안채,행랑채로 이루어진 9칸 ㄷ자형 전통 한옥입니다. 황토와 짚을 역은 벽체와 황토 기와를 지붕에 이었으며, 목재는 우리나라 홍송을 가공하여 1957년에 지어진 집을 원형을 살려 ...",
355,510,3,5,광주 동구 무등로321번길 20-5,35.1636513,126.919117,라이크 호텔,광주 최고 숙박업 라이크호텔을 소개합니다. ^^ 많은관심 부탁드려요,
356,511,3,5,광주 광산구 임곡연동길 131-13,35.2050419,126.777203,고운정,광주시내 근교에 위치한 조용하고 고즈넉한 공간으로 3년 동안 살면서 이쁘게 꾸민 정원과 텃밭을 힐링이 필요하시 분들에게 소개합니다,
357,610,3,6,부산 해운대구 구남로21번길 6,35.1622611,129.160599,엘본더스테이 엘본쓰,"해운대 최중심지에 있어 도보로 이동이 가능합니다. 해운대지하철역 3번출구에서 1분도보거리 , 파스쿠치골목위치",
358,611,3,6,부산 기장군 일광읍 해송3로 4 더뮤즈호텔,35.2658,129.2306,더뮤즈호텔,"부산시 기장군 일광바닷가 도보 7분 더뮤즈호텔은 전 객실에서 취사가 가능한 최신 설비를 갖춘 신축 호텔로써 동부산관광단지 오시리아 롯데월드 놀이동산까지 10분 거리, 근처 유명 골프장...",
359,612,3,6,부산 수영구 광안해변로278번길 42 A동 5층,35.1539865,129.124534,오션 투헤븐호텔,"* 전 객실 넷플릭스 이용가능(프론트 문의) * 전 객실 삼성 에어드레서, 코웨이 공기청정기 * 간편 조식 + 커피 무제한 제공 *CESCO 바이러스케어로 공기 정화 및 살균 관리 한국관광공사 인증 2...",
360,613,3,6,부산 해운대구 중동1로 40 2층,35.1620516,129.163249,마마 게스트하우스 해운대,1. 예약문의: 070-7797-3650. 2. 체크인시간 : 15:00~22:00 / 체크아웃시간 : 00:00~11:00 3. 주차시설 이용불가. 4. 파티없는 안전하고 청결하고 깔끔한 숙박시설을 제공합니다. 5. 객실: 전객실 개인 화장실 ...,
361,614,3,6,부산 기장군 기장읍 기장해안로 268-32,35.1978804,129.228376,아난티 힐튼 부산,"부산의 아름다운 해변을 품은 기장에 위치한 아난티 힐튼 부산에서 도심 속 완벽한 휴식처라는 차별화된 컨셉과 규모, 서비스를 자랑합니다. 탁 트인 오션뷰를 마음껏 감상 할 수 있는 약 21평...",
362,615,3,6,부산 수영구 광안해변로279번길 30,35.1567722,129.125495,와바 클래식,"광안리 바닷가,민락더마켓.수변공원 걸어서 2분거리~주변 맛집핫플 중심 친절한 서비스와 편안한 잠자리를 제공하기 위해 최선을 다하고 있습니다.",
363,3110,3,31,경기 성남시 수정구 위례대로 83 밀리토피아 호텔,37.46821,127.144133,위례 밀리토피아 호텔,"미래지향적인 웰빙도시 위례신도시의 랜드마크 밀리토피아호텔 남한산성을 에워싼 탁트인 시야와 쾌적하고 여유로운 친자연적인 공간활용, 모던하고 세련된 스타일의 외관과 품격 높은 인테...",
364,3111,3,31,경기 성남시 분당구 판교역로146번길 2,37.393426,127.11011,그래비티 서울 판교 오토그래프 컬렉션,그래비티 서울 판교는 잠들어 있는 일상을 깨우는 프리미엄 라이프 스타일 호텔입니다. 일상의 자극과 새롭고 다채로운 경험을 통하여 자신만의 가치를 찾아나서는 고객에게 생동감 넘치는 ...,
365,3112,3,31,경기 수원시 영통구 광교호수공원로 320 코트야드 메리어트 수원,37.284611,127.057562,코트야드 바이 메리어트 수원,"광교중앙역에서 6분, 강남역에서 30분 거리에 위치한 4성급 수원 호텔은 수원컨벤션센터, 갤러리아백화점, 아쿠아리움과 연결되어 있습니다. 비즈니스 회의 및 특별 행사를 위한 스위트룸과 다...",
366,3113,3,31,경기 김포시 고촌읍 아라육로152번길 169,37.601342,126.785849,라마다 앙코르 바이 윈덤 김포 한강 호텔,라마다앙코르 바이윈덤 김포한강호텔은 전세계적인 예약망과 마케팅 시스템을 구비한 세계적인 호텔 브랜드인 라마다와 제휴하여 2019년 3월 김포시 아라육로에 개관하였습니다. 지하 3층부터...,
367,3210,3,32,강원 원주시 동부순환로 200 호텔인터불고원주컨벤션호텔,37.3325,127.9742,호텔인터불고 원주,인터불고 INTER BURGO는 스페인어로 화목한 작은 마을이라는 뜻을 지닌 단어입니다. 강원도 원주시에 위치한 호텔인터불고 원주는 건물 후면의 전체가 각각의 4계절마다 그림같은 절경을 자랑하...,
368,3211,3,32,강원 양양군 양양읍 일출로 159-5 디그니티호텔,38.1085,128.6405,디그니티호텔,"당신이 꿈꾸는 이 곳에 동해를 가득품은 아름다운 호텔이 있습니다. 설악의 수려한 경관과 동해의 청정한 해변이 만난 그 곳, 양양. 여행의 가치를 높이는 디그니티 호텔로 당신을 초대합니다....",
369,3212,3,32,강원 정선군 사북읍 지장천로 583,37.2267,128.8124,정선 그랜드 인투라온 호텔,"그랜드 인투라온호텔은 아름다운 자연, 싱그러움과 설레임으로 가득한 강원도 정선 사북에 위치해 있습니다. 그랜드 인투라온호텔은 고객님께 삶의 여유와 활력을 더하는 공간이 될 수 있도...",
370,3213,3,32,강원 평창군 대관령면 오목길 107,37.6598,128.7177,평창 라마다 호텔&스위트,"라마다 호텔&스위트 강원 평창은 36,000제곱미터의 대지 주변으로 펼쳐지는 평창의 아름다운 풍경에 자연스럽게 녹아드는 건축의 형태를 찾아내기 위하여 고민한 결과물이며, 호텔의 생김새는 ...",
371,3214,3,32,강원 강릉시 주문진읍 주문로 59 SL호텔 강릉,37.8893,128.8254,SL호텔 강릉,"아름다운 동해의 일출과 일몰을 즐길 수 있는 곳, SL호텔강릉 때묻지 않은 옛스러움과 모던함이 함께 조화를 이루는 SL호텔강릉은 지역을 대표하는 특급 호텔로 레저와 비즈니스를 위한 다양한...",
372,3215,3,32,강원 강릉시 창해로 307,37.7911,128.9211,세인트존스호텔,"다양한 엔터테인먼트와 휴양을 한 곳에서 즐길 수 있는 곳, 세인트존스 호텔 푸른 해송숲과 청정 동해 바다가 만나는 곳에 위치한 세인트존스 호텔은 호텔 내 여유로운 휴양은 물론 다양한 부...",
373,3216,3,32,강원 강릉시 해안로406번길 17,37.799069,128.91357,경포비치관광호텔,경포비치관광호텔은 구)르호텔을 리모델링하여 새롭게 탄생했습니다. 깨끗하고 전망 좋은 객실과 최고급 시설과 다양한 부대시설을 갖추며 편안하고 분위기 있는 펍 레스토랑과 조식을 즐길 ...,
374,3217,3,32,강원 속초시 중앙로 266,38.213632,128.59677,속초 아이파크 스위트호텔,"차랑 5분거리에 설악산 국립공원이 인접한 쾌적한 자연환경/ 바로 앞 속초등대전망대와 등대해수욕장의 동해 앞바다와 연계한 아름다운 수변경관/ 수도권과 연결하는 고속도로와 국도, KTX역(2...",
375,3218,3,34,강원 속초시 해오름로 171,38.189741,128.602354,속초 컨피네스 비치 호텔,"푸르른 동해 바다와 설악을 품은 속초, 그곳에서 속초 컨피네스 비치호텔이 New Wave를 선도합니다. 아름다운 일출을 자랑하는 속초해수욕장과 사계절 내내 웅장한 기운을 주는 설악산. 그리고 ...",
376,3910,3,39,제주 서귀포시 예래로 424,33.2369293,126.3726851,베이힐 풀&빌라,베이힐풀앤빌라는 제주도 중문권에 위치한 고급 풀 빌라입니다. 하나의 호텔동과 9 개의 빌라동이 있으며 각각의 객실은 독특한 컨셉으로 디자인 되었으며 한국에서 가장 권위 높은 건축가 협...,
377,3911,3,39,제주 서귀포시 중문상로 207-13,33.2654244,126.4277447,제주 에코 스위츠,"제주에코스위츠 펜션은 제주의 신비로운 하늘과 구름을 바라보며 자연을 가까이 느끼면서, 도시에서의 스트레스를 날려 버릴 수 있는 최적의 장소입니다. 2022년11월15일 에코스위츠는 제주우...",
378,3912,3,39,제주 서귀포시 표선면 일주동로6285번길 13-12 해바라기펜션,33.3056026,126.8012145,제주 해바라기 펜션,"제주해바라기펜션은 제주도 동남부 중심에 위치해 있어 성산일출봉, 우도, 스누피가든, 제주민속촌, 성읍민속마을, 서귀포 정방폭포, 쇠소깍 등 많은 여행지를 편리하게 다닐 수 있어요. 저희 펜션은 바다와 올레길이 도보 3분거리에 위치해있어 바다전망과 산책로가 잘 되어 있고 키즈숙소부터, 커다란 객실 가족숙소까지 어떤 구성의 가족과 친구들이라도 편안하게 머무르실 수 있어요. 또 내부는 친환경 편백나무로 꾸며져 있어 제주도에서의 힐링을 도와드린답니다. 여름(7월,8월 날짜 추후공지)에는 어린이풀장이 운영되고 5분거리의 해수욕장에서 가족들과 즐거운 시간을 보내실 수 있어요.",